id,name,type,typecode,biz_type,address,LONGITUDE,LATITUDE,tel,pname,cityname,adname
B001B06EAF,湖北大学武昌校区,科教文化服务;学校;高等院校,141201,,友谊大道368号,114.334121,30.57687,027-88664102,湖北省,武汉市,武昌区
B001B0J0AA,武汉大学工学部,科教文化服务;学校;高等院校,141201,,校园北路,114.362329,30.543863,027-68775361,湖北省,武汉市,武昌区
B001B0IQYB,武汉音乐学院解放路校区,科教文化服务;学校;高等院校,141201,,解放路255号,114.295059,30.537664,027-88069387;027-88066354,湖北省,武汉市,武昌区
B001B08W98,湖北省武昌实验中学,科教文化服务;学校;中学,141202,,火炬路48号,114.303214,30.552287,027-88852768;027-88712062,湖北省,武汉市,武昌区
B001B16KT7,武汉大学生命科学学院,科教文化服务;学校;高等院校,141201,,珞珈山街道八一路299号,114.360868,30.533153,027-68756695;027-68754125,湖北省,武汉市,武昌区
B001B0IZWE,武汉中学,科教文化服务;学校;中学,141202,,粮道街275号,114.31178,30.547796,027-88912096;027-88912006,湖北省,武汉市,武昌区
B001B0I9T0,中南财经政法大学首义校区,科教文化服务;学校;高等院校,141201,,武珞路114号,114.313162,30.537365,027-88384522,湖北省,武汉市,武昌区
B001B06U1W,武汉大学医学部,科教文化服务;学校;高等院校,141201,,东湖路115号,114.353884,30.554086,027-68758689;027-68759364,湖北省,武汉市,武昌区
B001B0IFVJ,湖北财税职业学院,科教文化服务;学校;高等院校,141201,,白沙洲大道519号,114.298612,30.515271,027-88116071;027-88117970,湖北省,武汉市,武昌区
B001B0IG2Y,武汉大学经济与管理学院,科教文化服务;学校;高等院校,141201,,八一路299号珞珈山武汉大学,114.373465,30.538799,027-68752883,湖北省,武汉市,武昌区
B001B09EOG,水果湖第一小学,科教文化服务;学校;小学,141203,,水果湖街办事处东三路3号,114.348846,30.543876,027-87814681,湖北省,武汉市,武昌区
B001B06MRR,武昌中华路小学,科教文化服务;学校;小学,141203,,中华路59号,114.299847,30.549712,027-88857576,湖北省,武汉市,武昌区
B001B0I7V4,武汉市第十五中学,科教文化服务;学校;中学,141202,,武珞路343号,114.326887,30.538107,027-87813979,湖北省,武汉市,武昌区
B001B077EP,武汉市东湖中学,科教文化服务;学校;中学,141202,,徐东大街348号,114.367908,30.573514,,湖北省,武汉市,武昌区
B001B0IG36,武汉大学新闻与传播学院,科教文化服务;学校;高等院校,141201,,八一路299号珞珈山武汉大学,114.367746,30.539772,027-68752685;027-68752684,湖北省,武汉市,武昌区
B001B0IQOI,湖北美术学院(昙华林校区),科教文化服务;学校;高等院校,141201,,中山路374号(中铁十一局对面),114.316139,30.548231,027-81317222,湖北省,武汉市,武昌区
B001B16H8Q,湖北中医药大学(昙华林校区),科教文化服务;学校;高等院校,141201,,昙华林188号,114.313335,30.550377,027-68889041,湖北省,武汉市,武昌区
B001B09JLJ,武汉小学,科教文化服务;学校;小学,141203,,中南路5号,114.330791,30.536442,027-87332506,湖北省,武汉市,武昌区
B001B062F2,武汉航海职业技术学院喻家湖校区,科教文化服务;学校;高等院校,141201,,友谊大道321号,114.327073,30.577345,027-86811585,湖北省,武汉市,武昌区
B001B0IQJE,武汉市第十四中学,科教文化服务;学校;中学,141202,,粮道街办事处粮道街昙华林117号(省中医学院对面),114.313134,30.55195,,湖北省,武汉市,武昌区
B001B0665F,武汉市第二十五中学,科教文化服务;学校;中学,141202,,民主路608号,114.322715,30.54277,,湖北省,武汉市,武昌区
B001B0IFQS,武汉大学外国语言文学学院,科教文化服务;学校;高等院校,141201,,八一路299号珞珈山,114.370963,30.539418,027-68753312,湖北省,武汉市,武昌区
B001B0IRE0,武汉大学信息管理学院,科教文化服务;学校;高等院校,141201,,珞珈山16号武汉大学,114.375258,30.536589,027-68754436;027-68752653;027-68752135,湖北省,武汉市,武昌区
B001B08KK1,武汉大学化学与分子科学学院,科教文化服务;学校;高等院校,141201,,八一路299号珞珈山,114.359846,30.536559,,湖北省,武汉市,武昌区
B001B0IS43,武汉大学第一临床学院,科教文化服务;学校;高等院校,141201,,张之洞路9号,114.294455,30.535751,027-88041919,湖北省,武汉市,武昌区
B001B0IYKS,武汉大学政治与公共管理学院,科教文化服务;学校;高等院校,141201,,八一路299号珞珈山,114.367968,30.537986,027-68755297,湖北省,武汉市,武昌区
B001B09JQ2,武汉市武珞路中学,科教文化服务;学校;中学,141202,,武珞路387-1-1号,114.328678,30.536761,027-87813048,湖北省,武汉市,武昌区
B001B07GAD,湖北省水果湖高级中学,科教文化服务;学校;中学,141202,,东湖路74号,114.346209,30.549153,027-87231067;027-87123142,湖北省,武汉市,武昌区
B001B0IJTK,武汉理工大学余家头校区余家头校区交通学院,科教文化服务;学校;高等院校,141201,,和平大道1178武汉理工大学余家头校区,114.358944,30.609789,,湖北省,武汉市,武昌区
B001B08L7M,武汉市第九中学,科教文化服务;学校;中学,141202,,紫湖村11号,114.30254,30.529887,,湖北省,武汉市,武昌区
B001B0ATGC,武汉市第三十九中学,科教文化服务;学校;中学,141202,,首义路116号,114.308476,30.535794,027-88060155,湖北省,武汉市,武昌区
B001B0I5ZF,湖北省水果湖第二中学,科教文化服务;学校;中学,141202,,八一路5号,114.340779,30.542906,027-87122141,湖北省,武汉市,武昌区
B001B0ATGQ,武汉市第四十五中学,科教文化服务;学校;中学,141202,,文明路74号,114.294687,30.539212,027-88320340,湖北省,武汉市,武昌区
B001B0I9QP,中国民航管理干部学院,科教文化服务;学校;成人教育,141205,,洪山路2号湖北科教大厦C座505室,114.339391,30.544192,,湖北省,武汉市,武昌区
B001B0I7V3,武汉市第二职业教育中心学校,科教文化服务;学校;职业技术学校,141206,,大东门千家街4号,114.315848,30.538134,027-88076810,湖北省,武汉市,武昌区
B001B0IRVB,武汉大学教育科学学院,科教文化服务;学校;高等院校,141201,,八一路299号武汉大学工学部内,114.360243,30.542869,,湖北省,武汉市,武昌区
B001B08AV1,武昌文华中学,科教文化服务;学校;中学,141202,,粮道街71号,114.304454,30.549194,,湖北省,武汉市,武昌区
B001B06EB1,湖北省中华文化学院,科教文化服务;学校;高等院校,141201,,和平大道872号社院大厦,114.330603,30.586994,,湖北省,武汉市,武昌区
B001B0I6LV,武汉市中北路中学,科教文化服务;学校;中学,141202,,中北路武重二街坊225号,114.348215,30.556065,027-87305295,湖北省,武汉市,武昌区
B001B1BX0W,武汉大学第5教学楼,科教文化服务;学校;学校,141200,,珞珈山街办事处珞珈山路16号武汉大学文理学部,114.361555,30.536173,,湖北省,武汉市,武昌区
B001B0JGNU,武汉理工大学物流工程学院,科教文化服务;学校;高等院校,141201,,理工大学余家头校区,114.35805,30.608446,,湖北省,武汉市,武昌区
B001B1CXLX,湖北省省直机关第三幼儿园,科教文化服务;学校;幼儿园,141204,,洪山路36号,114.346288,30.543919,027-87126567;027-87232427,湖北省,武汉市,武昌区
B0FFGWHY34,湖北省水果湖第一中学,科教文化服务;学校;中学,141202,,东湖路89号,114.344385,30.550339,027-87233941;027-87822032,湖北省,武汉市,武昌区
B001B0IR91,武汉大学留学生教育学院,科教文化服务;学校;高等院校,141201,,八一路299号珞珈山,114.374029,30.537561,027-87647553,湖北省,武汉市,武昌区
B0FFFFNCQ2,湖北省老年大学,科教文化服务;学校;成人教育,141205,,东湖路158号,114.363611,30.560712,027-88161088;027-88161017,湖北省,武汉市,武昌区
B001B09JCT,武昌实验寄宿小学(南湖校区),科教文化服务;学校;小学,141203,,建安街43号,114.311243,30.505466,,湖北省,武汉市,武昌区
B001B16P63,武汉大学土木建筑工程学院,科教文化服务;学校;高等院校,141201,,珞珈山16号武汉大学,114.361366,30.544399,027-68772624,湖北省,武汉市,武昌区
B001B0IQQY,武汉市洪山区武珞路小学,科教文化服务;学校;小学,141203,,武珞路651号,114.345781,30.529595,027-87881245,湖北省,武汉市,武昌区
B001B0JHJC,武汉市梅苑学校,科教文化服务;学校;小学,141203,,梅苑路11附10号,114.326269,30.53322,027-88073287,湖北省,武汉市,武昌区
B0FFHM4ZWE,武汉大学工学部四教学楼,科教文化服务;学校;学校,141200,,珞珈山16号武汉大学附近,114.361335,30.543046,,湖北省,武汉市,武昌区
B0FFI6NUX7,湖北省立第一中学,科教文化服务;学校;中学,141202,,昙华林172号附近,114.3124,30.551612,,湖北省,武汉市,武昌区
B001B1BWQ4,武汉大学计算机学院大楼,科教文化服务;学校;学校,141200,,珞珈山16号武汉大学,114.357593,30.538484,027-68775363;027-68775361,湖北省,武汉市,武昌区
B001B09EOF,湖北省武昌水果湖第二小学,科教文化服务;学校;小学,141203,,水果湖横路31号,114.343377,30.548589,027-87816935,湖北省,武汉市,武昌区
B001B06MSH,湖北省武昌实验小学,科教文化服务;学校;小学,141203,,解放路259号,114.296639,30.538846,,湖北省,武汉市,武昌区
B001B0ITNC,武昌区徐东路小学,科教文化服务;学校;小学,141203,,友谊大道567号,114.344317,30.594185,027-86811624,湖北省,武汉市,武昌区
B001B07QN5,武汉市陆家街中学,科教文化服务;学校;中学,141202,,白沙洲大道523号,114.298594,30.516994,027-88114032,湖北省,武汉市,武昌区
B001B09BZ6,武汉市粮道街中学(三角路校区),科教文化服务;学校;中学,141202,,和平大道756号,114.324115,30.577778,027-86811319,湖北省,武汉市,武昌区
B001B0666B,武汉市粮道街中学,科教文化服务;学校;中学,141202,,马蹄营48,114.315805,30.547134,027-88854376,湖北省,武汉市,武昌区
B001B06Y7W,湖北省邮电干部学校,科教文化服务;学校;成人教育,141205,,八一路208号,114.352483,30.534695,,湖北省,武汉市,武昌区
B0FFF67GV2,武汉市武昌首义中学,科教文化服务;学校;中学,141202,,张之洞路147号,114.3032,30.533171,027-88072228,湖北省,武汉市,武昌区
B001B0BDHX,武昌区中山路小学,科教文化服务;学校;小学,141203,,张之洞路286号,114.314487,30.532276,13886157889,湖北省,武汉市,武昌区
B0FFIPPETC,武汉市粮道街中学(积玉桥校区),科教文化服务;学校;中学,141202,,尚隆路16号,114.309705,30.558563,027-88873119,湖北省,武汉市,武昌区
B001B1BX15,武汉大学文理学部第4教学楼,科教文化服务;学校;学校,141200,,八一路299号,114.361908,30.536775,,湖北省,武汉市,武昌区
B001B0J0HD,武汉大学幼儿园(一分园),科教文化服务;学校;幼儿园,141204,,八一路299号武汉大学文理学部,114.365693,30.532117,027-68762358,湖北省,武汉市,武昌区
B001B0IVCR,余家头小学,科教文化服务;学校;小学,141203,,铁机路27号,114.352125,30.604402,027-86551601,湖北省,武汉市,武昌区
B0FFF3URGK,武汉大学附属中学初中部,科教文化服务;学校;中学,141202,,八一路301附近,114.365751,30.530534,,湖北省,武汉市,武昌区
B001B0IUJE,武昌区三角路小学,科教文化服务;学校;小学,141203,,和平大道赵家墩街武车三村101附2号,114.327548,30.580214,,湖北省,武汉市,武昌区
B0FFGCE8LA,武昌实验小学-复地东湖国际中学,科教文化服务;学校;中学,141202,,水果湖街街道中北路118号武昌实验小学,114.351708,30.562643,,湖北省,武汉市,武昌区
B001B1BZC0,武汉初级中学,科教文化服务;学校;中学,141202,,瑞景路,114.331246,30.520237,027-87608837;027-88912006,湖北省,武汉市,武昌区
B001B0ATGL,武汉市第十四初级中学,科教文化服务;学校;中学,141202,,丁字桥路70号,114.328972,30.524277,,湖北省,武汉市,武昌区
B001B0ISOH,武昌区千家街小学,科教文化服务;学校;小学,141203,,千家街107,114.31646,30.534851,027-88072967,湖北省,武汉市,武昌区
B001B171AC,武汉大学医学职业技术学院,科教文化服务;学校;高等院校,141201,,张之洞路7号,114.293328,30.536041,027-88320851;027-88076070,湖北省,武汉市,武昌区
B001B0I4VN,浇卉幼儿园,科教文化服务;学校;幼儿园,141204,,武珞路3巷附近,114.32299,30.536637,,湖北省,武汉市,武昌区
B001B09OJK,武汉市杨园学校(暂停营业),科教文化服务;学校;中学,141202,,杨园纺机路7号,114.350367,30.602096,,湖北省,武汉市,武昌区
B001B1E6LR,小星星幼儿园,科教文化服务;学校;幼儿园,141204,,八一路街道口荣泰小区北侧约90米,114.354817,30.534056,13507131772,湖北省,武汉市,武昌区
B001B1DIFU,武汉大学财务部,科教文化服务;学校;高等院校,141201,,珞珈山16号武汉大学,114.366311,30.536933,027-68752400,湖北省,武汉市,武昌区
B0FFFP5XXH,武汉软件工程职业学院(武昌校区),科教文化服务;学校;高等院校,141201,,东湖风景区街道关凤路特1号,114.352879,30.602251,,湖北省,武汉市,武昌区
B001B09J7Y,武昌区丁字桥小学,科教文化服务;学校;小学,141203,,丁字桥路76号绅宝驾校(涂家岭生鲜市场对面),114.326395,30.521186,,湖北省,武汉市,武昌区
B001B0I6PD,武汉市晒湖中学,科教文化服务;学校;中学,141202,,武昌火车站东广场东安路23号,114.317596,30.525931,027-51164129,湖北省,武汉市,武昌区
B001B160I5,天主教中南神哲学院,科教文化服务;学校;高等院校,141201,,花园山2号,114.308091,30.551293,,湖北省,武汉市,武昌区
B001B0I5S0,武昌区棋盘街小学,科教文化服务;学校;小学,141203,,棋盘街42号,114.314148,30.547463,027-88872267,湖北省,武汉市,武昌区
B001B1BXF3,武汉大学马克思主义学院,科教文化服务;学校;高等院校,141201,,珞珈山16号武汉大学,114.367868,30.538155,027-68756091,湖北省,武汉市,武昌区
B001B07G9J,湖北省实验幼儿园,科教文化服务;学校;幼儿园,141204,,紫阳东路武珞路四巷179号,114.322557,30.530644,027-88323868,湖北省,武汉市,武昌区
B001B0BDI1,武昌区昙华林小学,科教文化服务;学校;小学,141203,,昙华林9号互联网,114.306657,30.553315,027-88871414,湖北省,武汉市,武昌区
B001B0IJMP,武汉铁路局党校,科教文化服务;学校;学校,141200,,徐东大街96号,114.347575,30.585286,,湖北省,武汉市,武昌区
B0FFFDCGTX,文华大学文学院,科教文化服务;学校;高等院校,141201,,昙华林188号,114.311692,30.550651,,湖北省,武汉市,武昌区
B0FFF35KRT,武汉大学木工厂车间,科教文化服务;学校;高等院校,141201,,珞珈山街道珞珈山16号武汉大学弘毅大道附近,114.362091,30.540971,,湖北省,武汉市,武昌区
B001B1IIYT,武汉大学理学院,科教文化服务;学校;高等院校,141201,,珞珈山16号武汉大学樱花大道附近,114.366252,30.540042,,湖北省,武汉市,武昌区
B001B15SMD,武汉市铁四院学校,科教文化服务;学校;中学,141202,,和平大道745号,114.344464,30.604508,027-51155543,湖北省,武汉市,武昌区
B001B1C5QG,武汉市南湖中学(北校区),科教文化服务;学校;中学,141202,,长虹桥37附4号,114.311734,30.515185,027-88708936,湖北省,武汉市,武昌区
B001B06OE2,武昌区傅家坡小学,科教文化服务;学校;小学,141203,,武珞路325号,114.325834,30.538256,027-87812433,湖北省,武汉市,武昌区
B001B0J0CJ,武汉市新河街学校,科教文化服务;学校;中学,141202,,新生路83号,114.317278,30.566885,027-88214473,湖北省,武汉市,武昌区
B001B0B7DO,南湖花园艺术幼儿园,科教文化服务;学校;幼儿园,141204,,长虹桥103号,114.30983,30.512073,027-88032903,湖北省,武汉市,武昌区
B0FFG8QKCB,武汉大学国际教育学院,科教文化服务;学校;高等院校,141201,,东湖南路附近,114.374618,30.537278,027-68756991,湖北省,武汉市,武昌区
B001B1DI8R,武汉大学测试中心,科教文化服务;学校;高等院校,141201,,八一路299号武汉大学内,114.361442,30.532845,027-68752439,湖北省,武汉市,武昌区
B0FFG8FZRU,武汉大学樱花城堡,科教文化服务;学校;高等院校,141201,,樱花大道附近(武汉大学内),114.364055,30.539602,,湖北省,武汉市,武昌区
B001B09J8M,武昌区回民小学,科教文化服务;学校;小学,141203,,起义街71号附近,114.306249,30.52521,027-88073567,湖北省,武汉市,武昌区
B001B15XY5,武汉市东湖风景区东湖小学,科教文化服务;学校;小学,141203,,东湖路164,114.366116,30.56505,027-86783681,湖北省,武汉市,武昌区
B001B1DI82,武汉大学总裁班,科教文化服务;学校;高等院校,141201,,八一路299号珞珈山,114.371441,30.538798,,湖北省,武汉市,武昌区
B001B09J7V,武昌区大东门小学,科教文化服务;学校;小学,141203,,紫金村139,114.318798,30.551284,027-88871081,湖北省,武汉市,武昌区
B001B1CXU5,武汉大学药学院,科教文化服务;学校;高等院校,141201,,珞珈山16号武汉大学,114.361442,30.532845,027-68755114,湖北省,武汉市,武昌区
B001B0ATWW,东亭学校,科教文化服务;学校;中学,141202,,黄鹂路29号,114.35799,30.56581,027-86783065,湖北省,武汉市,武昌区
B001B1DI8J,武汉大学国际教育中心,科教文化服务;学校;高等院校,141201,,珞珈山16号武汉大学,114.358612,30.541854,,湖北省,武汉市,武昌区
B0FFG652H7,武汉大学-体育部,科教文化服务;学校;高等院校,141201,,松园东路武汉大学(文理学部),114.366696,30.543215,,湖北省,武汉市,武昌区
B001B1DCA2,武汉大学(创业)实训工程武汉大学教学基地,科教文化服务;学校;高等院校,141201,,八一路299号珞珈山,114.371433,30.53879,,湖北省,武汉市,武昌区
B001B06XOU,复兴路小学保安街校区,科教文化服务;学校;小学,141203,,保安街123号,114.300281,30.528092,027-88062321;027-88071987,湖北省,武汉市,武昌区
B001B0I6P7,武昌区首义路小学,科教文化服务;学校;小学,141203,,首义新村147号附近,114.308156,30.538018,027-88073174,湖北省,武汉市,武昌区
B001B1CWTX,武汉大学艺术学系,科教文化服务;学校;高等院校,141201,,珞珈山街办事处珞珈山16号武汉大学,114.377104,30.534948,027-68752126;027-68755163,湖北省,武汉市,武昌区
B001B170SV,武昌老年大学,科教文化服务;学校;成人教育,141205,,黄鹤楼街办事处彭刘杨路129号,114.296788,30.541662,027-88849050;027-88876100,湖北省,武汉市,武昌区
B0FFGCDQJD,武汉理工大学航运学院,科教文化服务;学校;高等院校,141201,,友谊大道1178号,114.35853,30.602436,,湖北省,武汉市,武昌区
B001B16NC8,武昌区中南路小学,科教文化服务;学校;小学,141203,,水果湖街办事处八一路武铁村91号,114.339641,30.541055,027-87821822,湖北省,武汉市,武昌区
B0FFF35LDV,武汉大学保藏中心,科教文化服务;学校;高等院校,141201,,珞南一路附近武汉大学,114.362676,30.532661,,湖北省,武汉市,武昌区
B001B1DCIF,武汉大学emba教育中心,科教文化服务;学校;高等院校,141201,,八一路299号珞珈山,114.371432,30.53879,,湖北省,武汉市,武昌区
B0FFF35LDP,武汉大学聚英楼,科教文化服务;学校;学校,141200,,珞珈山16号武汉大学桂园一路附近,114.359281,30.53628,,湖北省,武汉市,武昌区
B001B0JU6H,武汉市四美塘中学,科教文化服务;学校;中学,141202,,四美塘路4号,114.33767,30.599358,,湖北省,武汉市,武昌区
B0FFGK3N07,武汉大学本科生院楼,科教文化服务;学校;高等院校,141201,,珞珈山16号,114.35792,30.534206,027-68754231,湖北省,武汉市,武昌区
B001B0I6OW,七星乐乐幼儿园,科教文化服务;学校;幼儿园,141204,,南湖街办事处南湖花园平安路139号七星雪香花园旁,114.319765,30.506278,027-88771418,湖北省,武汉市,武昌区
B001B0IZKK,武汉理工大学(余家头校区),科教文化服务;学校;高等院校,141201,,和平大道1178号,114.35659,30.606353,027-86546114;027-86554447,湖北省,武汉市,武昌区
B0FFGER7KB,武汉大学信息中心,科教文化服务;学校;高等院校,141201,,文澜路武汉大学(文理学部),114.360407,30.543769,,湖北省,武汉市,武昌区
B001B09JB3,新河街小学,科教文化服务;学校;小学,141203,,富贵里92号,114.31767,30.574025,,湖北省,武汉市,武昌区
B001B16R7K,武汉理工大学余家头校区余家头校区外国语学院,科教文化服务;学校;高等院校,141201,,杨园街办事处和平大道1178号武汉理工大学余家头校区,114.355792,30.609168,,湖北省,武汉市,武昌区
B0FFHRJHHZ,武汉大学城市设计学院,科教文化服务;学校;高等院校,141201,,珞珈山街道八一路299号,114.365299,30.542492,027-87056367,湖北省,武汉市,武昌区
B001B08KJU,武汉大学第二附属小学,科教文化服务;学校;小学,141203,,珞珈山16号武汉大学,114.358259,30.539989,027-68772045,湖北省,武汉市,武昌区
B0FFGCB48L,武昌区三道街小学,科教文化服务;学校;小学,141203,,三道街10号(近中华路派出所),114.304166,30.54644,027-88873652,湖北省,武汉市,武昌区
B001B1DI99,武汉大学水利水电学院,科教文化服务;学校;高等院校,141201,,东湖南路8号武汉大学桃园教8楼,114.362434,30.542641,027-68774370;027-68772215,湖北省,武汉市,武昌区
B0FFGAZ3SP,武汉大学保卫部二分部,科教文化服务;学校;高等院校,141201,,八一路299号,114.360462,30.543423,,湖北省,武汉市,武昌区
B0FFG98AFO,武汉大学枫园教学楼,科教文化服务;学校;高等院校,141201,,珞珈山16号武汉大学,114.374362,30.536974,,湖北省,武汉市,武昌区
B001B1CX44,武汉大学应用数学系,科教文化服务;学校;高等院校,141201,,八一路武汉大学数学与统计学院,114.364607,30.540257,,湖北省,武汉市,武昌区
B001B1BXVU,武汉大学基础数学系,科教文化服务;学校;高等院校,141201,,珞珈山16号武汉大学,114.364616,30.540229,,湖北省,武汉市,武昌区
B0FFG3YHUF,武汉大学商学院EMBA中心,科教文化服务;学校;高等院校,141201,,珞珈山16号武汉大学,114.373711,30.538649,,湖北省,武汉市,武昌区
B0FFGPTHJE,中山路小学紫都一分校,科教文化服务;学校;小学,141203,,白沙洲街办事处武金堤公路中大长江紫都,114.289048,30.515038,,湖北省,武汉市,武昌区
B0FFFGV5O9,武汉音乐学院-中乐排练厅,科教文化服务;学校;高等院校,141201,,张之洞路附近,114.291327,30.535976,,湖北省,武汉市,武昌区
B001B0BDHE,武昌区武泰闸小学,科教文化服务;学校;小学,141203,,钢厂路与建船路交叉处附近,114.304637,30.517787,027-88073871,湖北省,武汉市,武昌区
B001B1BYZM,武汉市东亭学校小学部,科教文化服务;学校;小学,141203,,中北路136号附122号,114.355098,30.563774,,湖北省,武汉市,武昌区
B001B1C0DJ,中南神学院,科教文化服务;学校;高等院校,141201,,民主路221号,114.303259,30.545995,,湖北省,武汉市,武昌区
B001B1DI5V,武汉大学电子信息学院,科教文化服务;学校;高等院校,141201,,八一路299号(武汉大学),114.358587,30.537868,027-68778464,湖北省,武汉市,武昌区
B0FFG3YHUH,武汉大学商学院MPAcc中心,科教文化服务;学校;高等院校,141201,,珞珈山16号武汉大学,114.373705,30.538594,,湖北省,武汉市,武昌区
B0FFGER7KL,武汉大学体育部第四教研室,科教文化服务;学校;高等院校,141201,,松园东路与松园中路交叉口东北100米,114.367034,30.543251,,湖北省,武汉市,武昌区
B001B1GLOW,武汉大学化学实验教学中心,科教文化服务;学校;高等院校,141201,,珞珈山街办事处武汉大学内,114.359388,30.536741,,湖北省,武汉市,武昌区
B001B1BXUL,武汉大学材料工程系,科教文化服务;学校;高等院校,141201,,育才路附近武汉大学,114.363726,30.544807,,湖北省,武汉市,武昌区
B001B08KJT,武汉大学第二附属小学(东湖路),科教文化服务;学校;小学,141203,,东湖路103号,114.34985,30.555008,,湖北省,武汉市,武昌区
B0FFGER7JS,武汉大学监察部,科教文化服务;学校;高等院校,141201,,文体路与自强大道交叉口南50米,114.366216,30.537318,,湖北省,武汉市,武昌区
B0FFGER7JR,武汉大学审计处,科教文化服务;学校;高等院校,141201,,八一路299号(武汉大学),114.366216,30.537318,,湖北省,武汉市,武昌区
B0FFG3YHTK,武汉大学桃园计算中心,科教文化服务;学校;高等院校,141201,,珞珈山16号武汉大学,114.360257,30.543685,,湖北省,武汉市,武昌区
B001B1IIBB,武汉大学物理科学与技术学院,科教文化服务;学校;高等院校,141201,,物理学院1层,114.36223,30.53434,027-68752161;027-68752969,湖北省,武汉市,武昌区
B0FFG411D8,武汉大学人事部,科教文化服务;学校;高等院校,141201,,珞珈山16号武汉大学,114.366605,30.537442,,湖北省,武汉市,武昌区
B0FFG7D78L,武汉大学校友工作办公室,科教文化服务;学校;高等院校,141201,,珞珈山街办事处珞珈山路16号,114.366535,30.535416,,湖北省,武汉市,武昌区
B0FFG411CN,武汉大学学生活动中心,科教文化服务;学校;高等院校|体育休闲服务;休闲场所;休闲场所,141201|080500,,珞珈山16号武汉大学,114.367111,30.541131,,湖北省,武汉市,武昌区
B001B0IG2Z,武汉大学法学院,科教文化服务;学校;高等院校,141201,,珞珈山16号武汉大学,114.3712,30.538789,027-68752932;027-68752917;027-68756607,湖北省,武汉市,武昌区
B001B1CXIC,武汉大学工学部计算机学院,科教文化服务;学校;高等院校,141201,,珞珈山16号武汉大学,114.357691,30.538473,027-68775363;027-68775361,湖北省,武汉市,武昌区
B0FFF35L6Q,武汉大学招生就业处组织部,科教文化服务;学校;高等院校,141201,,珞珈山16号武汉大学学府路8附近,114.366207,30.537529,,湖北省,武汉市,武昌区
B0FFHRBE2T,武汉大学电气与自动化学院,科教文化服务;学校;高等院校,141201,,,114.363152,30.543966,027-68772323,湖北省,武汉市,武昌区
B0FFGZOR3U,武汉理工大学余区44,科教文化服务;学校;高等院校,141201,,交通三路与学子路交叉口北150米,114.358509,30.606788,,湖北省,武汉市,武昌区
B0FFGZN0I9,武汉理工大学余区42,科教文化服务;学校;高等院校,141201,,友谊大道682号附近,114.358437,30.607013,,湖北省,武汉市,武昌区
B0FFGZN0DY,武汉理工大学余区46,科教文化服务;学校;高等院校,141201,,交通三路与学子路交叉口北100米,114.35854,30.606597,,湖北省,武汉市,武昌区
B0FFGZMWCY,武汉理工大学余区33,科教文化服务;学校;高等院校,141201,,交通三路与青年园南路交叉口南100米,114.358191,30.607762,,湖北省,武汉市,武昌区
B0FFGZN0H0,武汉理工大学余区19,科教文化服务;学校;高等院校,141201,,交通三路与青年园北路交叉口东50米,114.358072,30.608959,,湖北省,武汉市,武昌区
B0FFGZN05A,武汉理工大学余区26,科教文化服务;学校;高等院校,141201,,交通三路与青年园南路交叉口东南50米,114.35813,30.608246,,湖北省,武汉市,武昌区
B0FFGZMWOA,武汉理工大学余区20,科教文化服务;学校;高等院校,141201,,交通三路与青年园北路交叉口东南50米,114.357998,30.608777,,湖北省,武汉市,武昌区
B0FFGZMW8D,武汉理工大学余区22,科教文化服务;学校;高等院校,141201,,交通三路与青年园南路交叉口东北50米,114.358056,30.608517,,湖北省,武汉市,武昌区
B0FFGZMW71,武汉理工大学余区18,科教文化服务;学校;高等院校,141201,,和平大道1178号,114.358192,30.608977,,湖北省,武汉市,武昌区
B0FFGZMWBP,武汉理工大学余区43,科教文化服务;学校;高等院校,141201,,交通三路与学子路交叉口东北150米,114.359304,30.606832,,湖北省,武汉市,武昌区
B0FFGZMW99,武汉理工大学余区45,科教文化服务;学校;高等院校,141201,,交通三路与学子路交叉口东北150米,114.359329,30.60659,,湖北省,武汉市,武昌区
B0FFGZMWAN,武汉理工大学余区39,科教文化服务;学校;高等院校,141201,,交通三路与青年园南路交叉口东南200米,114.359224,30.607321,,湖北省,武汉市,武昌区
B0FFGZP1GV,武汉理工大学余区31,科教文化服务;学校;高等院校,141201,,友谊大道与才汇巷交叉口西北200米,114.360393,30.607884,,湖北省,武汉市,武昌区
B0FFGZOT7F,武汉理工大学余区25,科教文化服务;学校;高等院校,141201,,和平大道1178号武汉理工大学余家头校区附近,114.360322,30.60831,,湖北省,武汉市,武昌区
B0FFGZO6M0,武汉理工大学余区29,科教文化服务;学校;高等院校,141201,,联盟路附近,114.360364,30.608091,,湖北省,武汉市,武昌区
B0FFH9VIGQ,武汉理工大学余区63,科教文化服务;学校;高等院校,141201,,友谊大道与铁机路交叉口北150米,114.354581,30.602788,,湖北省,武汉市,武昌区
B0FFH9V8HR,武汉理工大学余区61,科教文化服务;学校;高等院校,141201,,友谊大道与铁机路交叉口北200米,114.354535,30.60321,,湖北省,武汉市,武昌区
B0FFH9VK2J,武汉理工大学余区62,科教文化服务;学校;高等院校,141201,,友谊大道与铁机路交叉口东北200米,114.355235,30.603092,,湖北省,武汉市,武昌区
B0FFH9VO60,武汉理工大学余区51,科教文化服务;学校;高等院校,141201,,交通一路与学子路交叉口南100米,114.356677,30.604891,,湖北省,武汉市,武昌区
B001B0I6OV,武汉市南湖中学(南校区),科教文化服务;学校;中学,141202,,平安路199号,114.316875,30.508206,,湖北省,武汉市,武昌区
B0FFH17X4C,武汉理工大学余区15,科教文化服务;学校;高等院校,141201,,交通三路与青年园北路交叉口东100米,114.358817,30.609276,,湖北省,武汉市,武昌区
B0FFHBB0PN,武汉理工大学34,科教文化服务;学校;高等院校,141201,,交通三路与青年园南路交叉口南100米,114.357926,30.607852,,湖北省,武汉市,武昌区
B0FFHBBW6Y,武汉理工大学余区40,科教文化服务;学校;高等院校,141201,,友谊大道682号附近,114.358428,30.607098,,湖北省,武汉市,武昌区
B0FFH289NT,武汉理工大学余区54,科教文化服务;学校;高等院校,141201,,交通一路与学子路交叉口西南200米,114.355366,30.604323,,湖北省,武汉市,武昌区
B0FFH27SPL,武汉理工大学余区52,科教文化服务;学校;高等院校,141201,,铁机路491附近,114.355227,30.605101,,湖北省,武汉市,武昌区
B0FFH25FAR,武汉理工大学余区48,科教文化服务;学校;高等院校,141201,,铁机路489附近,114.355203,30.605259,,湖北省,武汉市,武昌区
B0FFH22REL,武汉理工大学余区53,科教文化服务;学校;高等院校,141201,,铁机路491附近,114.355273,30.604899,,湖北省,武汉市,武昌区
B0FFH27EU0,武汉理工大学余区57,科教文化服务;学校;高等院校,141201,,友谊大道697附近,114.356359,30.603457,,湖北省,武汉市,武昌区
B0FFHBBUI5,武汉理工大学余区41,科教文化服务;学校;高等院校,141201,,交通三路与学子路交叉口东北200米,114.35953,30.607168,,湖北省,武汉市,武昌区
B0FFH268U0,武汉理工大学余区47,科教文化服务;学校;高等院校,141201,,和平大道1178,114.356583,30.605523,,湖北省,武汉市,武昌区
B0FFH23DCX,武汉理工大学余区24,科教文化服务;学校;高等院校,141201,,交通一路与青年园北路交叉口南50米,114.355918,30.608424,,湖北省,武汉市,武昌区
B0FFHJ8B0X,武汉理工大学交通学院,科教文化服务;学校;高等院校,141201,,杨园街办事处和平大道1178号武汉理工大学余家头校区,114.358944,30.609789,,湖北省,武汉市,武昌区
B0FFFFLU4Z,武汉大学文理学部教1楼,科教文化服务;学校;高等院校,141201,,珞珈山16号武汉大学,114.36538,30.537299,,湖北省,武汉市,武昌区
B0FFH2O55N,武汉理工大学余区28,科教文化服务;学校;高等院校,141201,,交通二路与青年园南路交叉口西南50米,114.356663,30.607989,,湖北省,武汉市,武昌区
B0FFH2O40Z,武汉理工大学余区23,科教文化服务;学校;高等院校,141201,,交通一路与青年园南路交叉口东北50米,114.356344,30.608383,,湖北省,武汉市,武昌区
B0FFH2O66K,武汉理工大学余区27,科教文化服务;学校;高等院校,141201,,交通三路与青年园南路交叉口西南50米,114.357592,30.608144,,湖北省,武汉市,武昌区
B0FFH2O6E4,武汉理工大学余区35,科教文化服务;学校;高等院校,141201,,交通三路与青年园南路交叉口南100米,114.357941,30.607813,,湖北省,武汉市,武昌区
B0FFH2O5JZ,武汉理工大学余区50,科教文化服务;学校;高等院校,141201,,交通三路与学子路交叉口南100米,114.358757,30.605163,,湖北省,武汉市,武昌区
B0FFH2O54F,武汉理工大学余区34,科教文化服务;学校;高等院校,141201,,交通三路与青年园南路交叉口南50米,114.357885,30.608102,,湖北省,武汉市,武昌区
B0FFH2O7LQ,武汉理工大学余区49,科教文化服务;学校;高等院校,141201,,交通三路与学子路交叉口东50米,114.358896,30.605682,,湖北省,武汉市,武昌区
B0FFH5K0HZ,武汉理工大学余区16,科教文化服务;学校;高等院校,141201,,和平大道1178,114.358127,30.609207,,湖北省,武汉市,武昌区
B0FFH5K0FX,武汉理工大学余区12,科教文化服务;学校;高等院校,141201,,交通三路与水运湖路交叉口东100米,114.358465,30.609752,,湖北省,武汉市,武昌区
B0FFH5K5KH,武汉理工大学余区11,科教文化服务;学校;高等院校,141201,,交通三路与水运湖路交叉口东100米,114.358649,30.609693,,湖北省,武汉市,武昌区
B001B1DI9M,武汉大学社会科学部,科教文化服务;学校;高等院校,141201,,东湖南路,114.369505,30.537204,,湖北省,武汉市,武昌区
B0FFGP1M82,武汉音乐学院北校区,科教文化服务;学校;高等院校,141201,,解放路427号附近,114.29835,30.544451,,湖北省,武汉市,武昌区
B0FFGWJG6W,武汉大学英语自主学习中心,科教文化服务;学校;高等院校,141201,,武汉大学教二楼1层,114.361731,30.538862,,湖北省,武汉市,武昌区
B0FFG39H08,万福林小学,科教文化服务;学校;小学,141203,,陆家街18附近,114.298058,30.516,027-88113279,湖北省,武汉市,武昌区
B001B1CX8C,武汉大学3教学楼,科教文化服务;学校;学校,141200,,国立武汉大学3教学楼,114.363094,30.543968,,湖北省,武汉市,武昌区
B001B1CWTF,武汉大学11教学楼,科教文化服务;学校;学校,141200,,珞珈山16号武汉大学,114.360913,30.540695,,湖北省,武汉市,武昌区
B0FFF35L8O,武汉大学佩松楼,科教文化服务;学校;学校,141200,,八一路299号武汉大学新闻与传播学院附近,114.367759,30.539776,,湖北省,武汉市,武昌区
B0FFF35L7E,武汉大学质廷楼,科教文化服务;学校;学校,141200,,珞珈山16号武汉大学科技路附近,114.36247,30.534338,,湖北省,武汉市,武昌区
B0FFF35L8E,武汉大学四方楼,科教文化服务;学校;学校,141200,,八一路299号武汉大学财务部附近,114.366733,30.536979,,湖北省,武汉市,武昌区
B0FFF35L9F,武汉大学博观楼,科教文化服务;学校;学校,141200,,珞珈山16号武汉大学,114.361442,30.532845,,湖北省,武汉市,武昌区
B001B1CWTZ,武汉大学教3楼,科教文化服务;学校;学校,141200,,珞珈山16号武汉大学桂园路8附近,114.360423,30.539332,,湖北省,武汉市,武昌区
B001B1BWYY,武汉大学-亮胜楼,科教文化服务;学校;学校,141200,,八一路299号武汉大学经济与管理学院附近,114.373701,30.5386,,湖北省,武汉市,武昌区
B001B1HC0W,武汉大学动力与机械学院,科教文化服务;学校;高等院校,141201,,八一路299号,114.363107,30.544691,027-68772272,湖北省,武汉市,武昌区
B001B1CXRJ,武汉大学数学与统计科学系,科教文化服务;学校;高等院校,141201,,松园南路与樱园北路交叉口南200米,114.364616,30.540254,,湖北省,武汉市,武昌区
B0FFFGV6AO,武汉大学人民医院药学部,科教文化服务;学校;高等院校,141201,,张之洞路,114.294687,30.536678,,湖北省,武汉市,武昌区
B0FFF35LJ3,武汉大学药学院药剂学系,科教文化服务;学校;高等院校,141201,,花堤街附近,114.294687,30.536678,,湖北省,武汉市,武昌区
B0FFJIGGTH,武汉大学文学院,科教文化服务;学校;高等院校,141201,,武汉大学振华楼,114.35897,30.534634,027-68754310,湖北省,武汉市,武昌区
B001B091TA,金童子艺术幼儿园(南湖路),科教文化服务;学校;幼儿园,141204,,南湖花园瑞安街伟业家园,114.310815,30.513157,027-88020703;18071722073,湖北省,武汉市,武昌区
B001B1DI68,武汉大学材料物理系,科教文化服务;学校;高等院校,141201,,珞珈山16号武汉大学科技路附近,114.361519,30.533414,,湖北省,武汉市,武昌区
B0FFGCBD9L,武昌中华路小学橡树湾校区,科教文化服务;学校;小学,141203,,铁机路5号8-9,114.34939,30.611117,027-88100180,湖北省,武汉市,武昌区
B001B0IRVC,武汉大学国际教育中心,科教文化服务;学校;高等院校,141201,,八一路299号文澜路武汉大学,114.360843,30.544172,,湖北省,武汉市,武昌区
B001B1EFXV,武汉大学文化素质教育报告厅,科教文化服务;学校;高等院校,141201,,八一路299号武汉大学内,114.361626,30.536411,,湖北省,武汉市,武昌区
B001B05314,武汉市梅苑学校小学部,科教文化服务;学校;小学,141203,,中南路街办事处北安街3号,114.3216,30.530171,027-87274746,湖北省,武汉市,武昌区
B001B1H28N,湖北省水力发电工程学会,科教文化服务;学校;高等院校,141201,,东湖南路8号武汉大学工学部,114.359205,30.542057,,湖北省,武汉市,武昌区
B0FFG411CJ,武汉大学律师进修学院,科教文化服务;学校;高等院校,141201,,珞珈山16号,114.371307,30.53876,,湖北省,武汉市,武昌区
B0FFHUAEM0,武汉大学文理学部,科教文化服务;学校;高等院校,141201,,八一路299号武汉大学内,114.362923,30.535342,027-68755114,湖北省,武汉市,武昌区
B0FFHR20GQ,武汉大学蝶楼,科教文化服务;学校;高等院校,141201,,东湖南路38号附近,114.368262,30.541929,,湖北省,武汉市,武昌区
B0FFHO6HTD,武汉大学艺术学院,科教文化服务;学校;高等院校,141201,,人文路,114.36768,30.539074,,湖北省,武汉市,武昌区
B0FFG411CM,武汉大学四六级考试中心,科教文化服务;学校;高等院校,141201,,珞珈山16号武汉大学,114.363223,30.5398,,湖北省,武汉市,武昌区
B0FFF35L8W,武汉大学-教1楼,科教文化服务;学校;学校,141200,,珞珈山路16号武汉大学附近,114.365428,30.537199,,湖北省,武汉市,武昌区
B0FFHCVNCS,武汉大学-陶艺室,科教文化服务;学校;高等院校,141201,,武汉大学学生3食堂1层,114.366191,30.543792,,湖北省,武汉市,武昌区
B001B1CX7W,湖北美术学院教学楼1,科教文化服务;学校;高等院校,141201,,粮道街办事处中山路374号,114.316811,30.547665,,湖北省,武汉市,武昌区
B0FFGPOGMR,武汉交通科技学院(武昌校区),科教文化服务;学校;高等院校,141201,,徐家棚街办事处学院路9号,114.327406,30.579645,,湖北省,武汉市,武昌区
B001B1CXPT,武汉市铁四院学校小学部,科教文化服务;学校;小学,141203,,铁四院附近,114.344316,30.604098,027-51155543,湖北省,武汉市,武昌区
B001B1H7B6,武汉大学早期建筑法学院,科教文化服务;学校;高等院校,141201,,八一路299号武汉大学内,114.363005,30.539769,,湖北省,武汉市,武昌区
B001B16N6J,武昌丁字桥幼儿园,科教文化服务;学校;幼儿园,141204,,武莲路3号,114.326105,30.522141,,湖北省,武汉市,武昌区
B0FFFCLNT4,武汉市晒湖中学附属小学,科教文化服务;学校;小学,141203,,东安路23号,114.31748,30.526337,,湖北省,武汉市,武昌区
B0FFGCB4SZ,湖北美术学院雕塑系工作室,科教文化服务;学校;高等院校,141201,,中山路374号湖北美术学院内,114.315485,30.549682,,湖北省,武汉市,武昌区
B0FFFLII35,武汉纺织大学外经贸学院东湖校区,科教文化服务;学校;高等院校,141201,,东湖梨园渔光村特一号,114.372966,30.579136,027-59367521,湖北省,武汉市,武昌区
B001B0IS71,武昌区何家垅小学,科教文化服务;学校;小学,141203,,工人村231,114.328652,30.545536,027-87822138,湖北省,武汉市,武昌区
B0FFGER7JZ,武汉大学图书情报实验教学中心,科教文化服务;学校;高等院校,141201,,珞珈山路16号武汉大学,114.375433,30.536603,,湖北省,武汉市,武昌区
B0FFFQLG8O,武汉大学青年互助服务中心,科教文化服务;学校;高等院校,141201,,珞珈山16号武汉大学,114.36663,30.543801,,湖北省,武汉市,武昌区
B0FFF34242,武汉理工大学余家头校区接待中心,科教文化服务;学校;高等院校,141201,,杨园街办事处和平大道1178号武汉理工大学余家头校区学子路附近,114.359698,30.605819,,湖北省,武汉市,武昌区
B001B1H2DE,武汉大学雅各楼,科教文化服务;学校;学校,141200,,珞珈山16号武汉大学,114.360321,30.542958,,湖北省,武汉市,武昌区
B0FFF35LHK,武汉大学医学职业技术学院实验楼,科教文化服务;学校;高等院校,141201,,张之洞路7号,114.29325,30.536523,,湖北省,武汉市,武昌区
B0FFFDCGP4,湖北中医药大学7号楼,科教文化服务;学校;学校,141200,,昙华林188号,114.312387,30.550543,,湖北省,武汉市,武昌区
B0FFFDCGP8,湖北中医药大学4号楼,科教文化服务;学校;学校,141200,,昙华林188号,114.314259,30.549729,,湖北省,武汉市,武昌区
B0FFG4ID97,武汉航海职业技术学院教学楼,科教文化服务;学校;高等院校,141201,,友谊大道321号附近,114.32748,30.576885,,湖北省,武汉市,武昌区
B001B1DBRS,武汉大学研究生院,科教文化服务;学校;高等院校,141201,,珞珈山16号武汉大学当代楼,114.35911,30.53292,027-68754046;027-68754030,湖北省,武汉市,武昌区
B0FFG107KT,武汉大学教师教学发展艺术学系中心,科教文化服务;学校;高等院校,141201,,八一路483号武汉大学艺术学系附近,114.377273,30.535046,,湖北省,武汉市,武昌区
B001B1DI4N,武汉大学采购与招标管理中心,科教文化服务;学校;高等院校,141201,,八一路299号(武汉大学),114.366536,30.536933,027-68754583;027-68754585,湖北省,武汉市,武昌区
B001B1AS6Z,蒙特梭利双语幼儿园,科教文化服务;学校;幼儿园,141204,,南湖街道瑞安街84号中央花园,114.316596,30.511058,,湖北省,武汉市,武昌区
B001B06WSJ,武昌区三道街小学(民主路校区),科教文化服务;学校;小学,141203,,民主路69号武昌,114.29773,30.547408,027-88871621,湖北省,武汉市,武昌区
B0FFF35LJ1,武汉大学-工学部6教学楼,科教文化服务;学校;学校,141200,,珞珈山16号武汉大学文澜路附近,114.361484,30.542461,,湖北省,武汉市,武昌区
B001B1CWYG,武汉大学城市设计学院(松园中路),科教文化服务;学校;高等院校,141201,,珞珈山16号武汉大学,114.366303,30.537131,027-68773062,湖北省,武汉市,武昌区
B0FFGCB48M,武昌区棋盘街小学(候补街校区),科教文化服务;学校;小学,141203,,候补街81号,114.30764,30.549853,,湖北省,武汉市,武昌区
B001B1C0ZM,金色阳光幼儿园,科教文化服务;学校;幼儿园,141204,,和平大道赵家敦750号,114.326368,30.580616,18171220212;027-88615528,湖北省,武汉市,武昌区
B001B1CWPP,武昌实验小学附属幼儿园,科教文化服务;学校;幼儿园,141204,,中南路街办事处紫阳东路静安社区内81号,114.324425,30.529425,,湖北省,武汉市,武昌区
B0FFF3425W,武汉理工大学余家头校区余区管委会,科教文化服务;学校;高等院校,141201,,和平大道1178号武汉理工大学余家头校区,114.35658,30.608362,,湖北省,武汉市,武昌区
B0HUYRSAGD,武汉大学自考招办,科教文化服务;学校;高等院校,141201,,八一路299号珞珈山,114.371196,30.538679,,湖北省,武汉市,武昌区
B001B1DI30,武汉大学后勤服务集团,科教文化服务;学校;高等院校,141201,,八一路299号武汉大学(近梅园餐厅),114.365513,30.535948,027-68756546,湖北省,武汉市,武昌区
B0FFGPSRS6,武昌区南湖第一小学(北校区),科教文化服务;学校;小学,141203,,南湖街办事处平安路雅安街松涛苑小区,114.324069,30.511198,,湖北省,武汉市,武昌区
B0FFFLII59,华中科技大学同济医学院第三临床学院,科教文化服务;学校;高等院校,141201,,东湖风景区街道沿湖大道39号,114.378432,30.581403,,湖北省,武汉市,武昌区
B001B1CXDH,武汉大学工学部工学部教工网络中心,科教文化服务;学校;高等院校,141201,,珞珈山街办事处珞珈山路16号,114.360275,30.543784,,湖北省,武汉市,武昌区
B001B1CXBI,武汉大学土木建筑工程学院工程力学系,科教文化服务;学校;高等院校,141201,,八一路299号武汉大学工学部内,114.360478,30.544023,,湖北省,武汉市,武昌区
B0FFHCKWNJ,武汉大学港澳台事务办公室,科教文化服务;学校;高等院校,141201,,珞珈山街办事处武汉大学国际交流部,114.366869,30.537579,,湖北省,武汉市,武昌区
B0FFGER7KY,教育部武汉大学文科文献信息中心,科教文化服务;学校;高等院校,141201,,珞珈山街办事处武汉大学历史学院武汉大学人文科学馆附近,114.367588,30.538959,,湖北省,武汉市,武昌区
B0FFH0U9K7,武汉大学动力与机械学院自主制作车间,科教文化服务;学校;高等院校,141201,,弘毅大道武汉大学(文理学部),114.362723,30.54118,,湖北省,武汉市,武昌区
B0FFHFV75V,湖北省社会主义学院,科教文化服务;学校;高等院校,141201,,和平大道872号社院大厦(近惠誉花园车站),114.330489,30.586895,027-86837809;027-82627734,湖北省,武汉市,武昌区
B001B1BXOG,武大动力与机械学院机械工程系,科教文化服务;学校;高等院校,141201,,珞珈山16号武汉大学,114.363559,30.544863,,湖北省,武汉市,武昌区
B0FFLF2RCB,武汉大学减压楼,科教文化服务;学校;高等院校,141201,,武汉大学工学部,114.364972,30.544917,,湖北省,武汉市,武昌区
B001B1CX1U,武汉大学数学与统计学院,科教文化服务;学校;高等院校,141201,,珞珈山街办事处八一路299号,114.363085,30.539708,027-68752957,湖北省,武汉市,武昌区
B001B170XM,武汉音乐学院,科教文化服务;学校;高等院校,141201,,紫阳街办事处临江大道1号,114.291392,30.536647,027-88076720,湖北省,武汉市,武昌区
B001B0JZ1Q,水果湖艺术学校,科教文化服务;培训机构;培训机构|科教文化服务;学校;学校,141400|141200,,水果湖路186附4号,114.346775,30.547345,,湖北省,武汉市,武昌区
B0G2HAQ7Q0,武汉大学历史学院,科教文化服务;学校;高等院校,141201,,珞珈山街街道珞珈山16号武汉大学振华楼(靠近化学学院),114.35926,30.535446,,湖北省,武汉市,武昌区
B0HDYHPOLX,武汉大学计算机学院,科教文化服务;学校;高等院校,141201,,桂园餐厅,114.357609,30.538504,,湖北省,武汉市,武昌区
B0FFGCBLSP,武汉理工大学工业职业技术学院,科教文化服务;学校;高等院校,141201,,工院路联投时代中心东北侧约100米,114.315805,30.574307,,湖北省,武汉市,武昌区
B0FFFFDA7L,武汉大学工学部5教楼,科教文化服务;学校;学校,141200,,珞珈山16号武汉大学,114.363556,30.543132,,湖北省,武汉市,武昌区
B0FFF5W4TL,武汉大学逸夫楼(育才路),科教文化服务;学校;学校,141200,,八一路299号武汉大学,114.360396,30.533366,,湖北省,武汉市,武昌区
B0FFGEGKB7,武汉大学国际教育学院医学部楼,科教文化服务;学校;高等院校,141201,,东湖路127(武汉大学医学部),114.357165,30.554846,,湖北省,武汉市,武昌区
B0FFGJR030,武汉理工大学外国语学院(余区),科教文化服务;学校;高等院校,141201,,和平大道1178号武汉理工大学余家头校区,114.355721,30.609369,,湖北省,武汉市,武昌区
B0FFG4H1Z6,湖北艺术职业学院文化艺术管理系,科教文化服务;学校;高等院校,141201,,石牌岭11号,114.342404,30.525763,,湖北省,武汉市,武昌区
B001B1DIBL,武汉大学学生就业服务中心,科教文化服务;学校;高等院校|生活服务;人才市场;人才市场,141201|070800,,武汉大学人文馆负一楼,114.367591,30.538879,,湖北省,武汉市,武昌区
B001B0JS6J,武昌区解放桥小学,科教文化服务;学校;小学,141203,,堤东街451号,114.293314,30.521326,027-88115408,湖北省,武汉市,武昌区
B001B1IGKE,武汉大学动力与机械学院动力工程系,科教文化服务;学校;高等院校,141201,,珞珈山街办事处八一路299号武汉大学电气工程学院附近,114.363063,30.544606,,湖北省,武汉市,武昌区
B0FFFCQNQF,湖北大学艺术学院音乐系办公室,科教文化服务;学校;高等院校,141201,,琴园路,114.331905,30.57418,,湖北省,武汉市,武昌区
B001B1CX9J,武汉大学幼儿园(二分园),科教文化服务;学校;幼儿园,141204,,珞珈山街办事处八一路武汉大学北三区7栋,114.35795,30.543458,027-68772164,湖北省,武汉市,武昌区
B0FFG4JQGY,武汉大学第一临床学院第四阶梯教室,科教文化服务;学校;高等院校,141201,,张之洞路9(武汉大学第一临床学院),114.295436,30.535171,,湖北省,武汉市,武昌区
B0FFG4HEPR,武汉大学第一临床学院第三阶梯教室,科教文化服务;学校;高等院校,141201,,张之洞路9(武汉大学第一临床学院),114.295582,30.535159,,湖北省,武汉市,武昌区
B0FFGCDR1G,武汉理工大学能源与动力工程学院,科教文化服务;学校;高等院校,141201,,洪山区友谊大道东200米,114.357381,30.601517,,湖北省,武汉市,武昌区
B001B1II8K,武汉理工大学余家头校区余家头校区自动化学院,科教文化服务;学校;高等院校,141201,,和平大道1178武汉理工大学余家头校区,114.358145,30.609688,,湖北省,武汉市,武昌区
B001B1CWP9,武汉理工大学余家头校区动力楼,科教文化服务;学校;学校,141200,,和平大道1178号武汉理工大学余家头校区,114.358745,30.606479,,湖北省,武汉市,武昌区
B0FFF3424S,武汉理工大学余家头校区船机楼,科教文化服务;学校;学校,141200,,和平大道1178号武汉理工大学余家头校区,114.358652,30.607296,,湖北省,武汉市,武昌区
B0FFF35LHS,武汉大学国际教育学院(桂园楼),科教文化服务;学校;学校,141200,,珞珈山路16号武汉大学,114.360366,30.53899,027-68753865,湖北省,武汉市,武昌区
B001B1CX5P,湖北美术学院1综合楼,科教文化服务;学校;学校,141200,,中山路374号湖北美术学院内,114.316877,30.548522,,湖北省,武汉市,武昌区
B001B1HATY,湖北美术学院3教学楼,科教文化服务;学校;学校,141200,,粮道街办事处中山路374号湖北美术学院内,114.316245,30.547933,,湖北省,武汉市,武昌区
B001B070RR,武昌区机关幼儿园,科教文化服务;学校;幼儿园,141204,,延望街20号,114.300954,30.550423,027-88872157,湖北省,武汉市,武昌区
B001B1CX05,武汉理工大学余家头校区余家头校区信息工程学院,科教文化服务;学校;高等院校,141201,,和平大道1178号武汉理工大学余家头校区,114.358145,30.609688,,湖北省,武汉市,武昌区
B001B1C600,武汉理工大学余家头校区交通学院交通运输管理系,科教文化服务;学校;高等院校,141201,,和平大道1178号武汉理工大学余家头校区附近,114.359552,30.606588,,湖北省,武汉市,武昌区
B001B052EF,中共武汉市武昌区委员会党校,科教文化服务;学校;学校,141200,,丁字桥路58,114.329806,30.524477,027-87270949;027-87893662,湖北省,武汉市,武昌区
B001B05563,武汉邮政技工学校,科教文化服务;学校;职业技术学校,141206,,黄鹂路37号,114.360231,30.567788,,湖北省,武汉市,武昌区
B0FFHC4BRM,武汉大学大学生工程训练与创新实践中心,科教文化服务;学校;高等院校,141201,,珞珈山街办事处东湖南路8号,114.361642,30.541611,,湖北省,武汉市,武昌区
B001B1H2D9,武汉大学老外文楼,科教文化服务;学校;学校,141200,,珞珈山16号武汉大学,114.36324,30.539876,,湖北省,武汉市,武昌区
B001B1DI65,武汉大学基建管理部,科教文化服务;学校;高等院校,141201,,珞珈山16号武汉大学,114.360531,30.532439,,湖北省,武汉市,武昌区
B001B1H3EO,武汉大学行政楼,科教文化服务;学校;学校,141200,,珞珈山16号武汉大学文体路附近,114.366569,30.537513,,湖北省,武汉市,武昌区
B0FFFGV5N6,武汉音乐学院(紫阳路校区)-展演楼,科教文化服务;学校;高等院校,141201,,黄鹤楼街办事处临江大道1号,114.291404,30.537518,,湖北省,武汉市,武昌区
B0FFF35LHR,武汉大学第一临床学院教学楼,科教文化服务;学校;学校,141200,,张之洞路9(武汉大学第一临床学院),114.295994,30.534823,,湖北省,武汉市,武昌区
B001B1IIZ8,武汉理工大学余家头校区交通学院船舶与海洋工程系,科教文化服务;学校;高等院校,141201,,和平大道1178号武汉理工大学余家头校区学子路附近,114.359452,30.606844,,湖北省,武汉市,武昌区
B0FFH5J06O,武汉理工大学信息工程学院(余区),科教文化服务;学校;高等院校,141201,,积玉桥街街道余家头,114.357795,30.609638,,湖北省,武汉市,武昌区
B0FFHFJPT2,武汉大学医学职业技术学院播音室,科教文化服务;学校;高等院校,141201,,张之洞路7号附近,114.293797,30.536088,,湖北省,武汉市,武昌区
B001B1CWMD,武汉音乐学院紫阳路校区琴房大楼,科教文化服务;学校;学校,141200,,临江大道1号武汉音乐学院紫阳路校区,114.291111,30.536245,,湖北省,武汉市,武昌区
B0FFF35LHI,武汉大学医学职业技术学院综合楼,科教文化服务;学校;学校,141200,,张之洞路7武汉大学医学职业技术学院,114.29321,30.535828,,湖北省,武汉市,武昌区
B0FFFGLR1N,武汉大学电子信息学院教学实验中心,科教文化服务;学校;高等院校,141201,,珞珈山16号武汉大学茶港路附近,114.356957,30.538765,,湖北省,武汉市,武昌区
B001B1CWQ5,湖北美术学院5号教学楼,科教文化服务;学校;学校,141200,,中山路374号,114.317055,30.547995,,湖北省,武汉市,武昌区
B0FFGPYPIW,武汉音乐学院张之洞路校区琴房大楼,科教文化服务;学校;高等院校,141201,,张之洞路1号附近,114.291006,30.536256,,湖北省,武汉市,武昌区
B0FFG4IQ35,武汉航海职业技术学院航海楼,科教文化服务;学校;学校,141200,,友谊大道321武汉航海职业技术学院,114.327657,30.577845,,湖北省,武汉市,武昌区
B0FFG4INU2,武汉航海职业技术学院行政楼,科教文化服务;学校;学校,141200,,友谊大道321武汉航海职业技术学院,114.32709,30.576493,,湖北省,武汉市,武昌区
B0G0GZJ4FW,武汉江城国际经贸辅导学院,科教文化服务;学校;高等院校,141201,,,114.326158,30.571966,,湖北省,武汉市,武昌区
B0FFFLJWC8,武汉理工大学余家头校区交通学院工程系,科教文化服务;学校;高等院校,141201,,和平大道1178号武汉理工大学余家头校区,114.360525,30.608099,,湖北省,武汉市,武昌区
B001B052F0,武汉市武昌区行政学校,科教文化服务;学校;高等院校,141201,,中南路街办事处丁字桥路58号,114.329888,30.524336,,湖北省,武汉市,武昌区
B0FFFH0JJI,武汉大学经济与管理学院景林报告厅,科教文化服务;学校;高等院校,141201,,八一路299号,114.373469,30.538686,,湖北省,武汉市,武昌区
B001B1CX9Q,武汉大学政治与公共管理学院政治学与国际关系学系,科教文化服务;学校;高等院校,141201,,八一路299号武汉大学,114.367772,30.53793,,湖北省,武汉市,武昌区
B001B1CXNZ,武汉理工大学余家头校区余家头校区自动化学院控制工程系,科教文化服务;学校;高等院校,141201,,和平大道1178号武汉理工大学余家头校区,114.358145,30.609688,,湖北省,武汉市,武昌区
B0FFHFJPOO,武汉大学医学职业技术学院实训中心,科教文化服务;学校;高等院校,141201,,花堤街8-208号附近,114.293082,30.535982,,湖北省,武汉市,武昌区
B0HU6P1F77,武汉第二职教中心,科教文化服务;学校;职业技术学校,141206,,首义路街道大东门千家街4号,114.315849,30.538134,027-88076810,湖北省,武汉市,武昌区
B0FFFLIT4G,武汉纺织大学东湖校区教学楼,科教文化服务;学校;学校,141200,,东湖风景区街道,114.373417,30.578989,,湖北省,武汉市,武昌区
B0G0G5IF1N,湖北美术学院昙华林校区2区,科教文化服务;学校;高等院校,141201,,,114.316499,30.548504,,湖北省,武汉市,武昌区
B0HUY1U1DL,湖北省武昌实验小学,科教文化服务;学校;小学,141203,,大成路45号,114.297387,30.544571,,湖北省,武汉市,武昌区
B0FFGD4BSD,武汉大学国际教育学院行政楼,科教文化服务;学校;学校,141200,,珞珈山16号武汉大学,114.374617,30.537278,,湖北省,武汉市,武昌区
B001B1CWWB,武汉瑞景小学,科教文化服务;学校;小学,141203,,中南路街办事处瑞景路40号,114.33262,30.520371,,湖北省,武汉市,武昌区
B001B1DIFT,武汉大学国家领土主权与海洋权益协同创新中心,科教文化服务;学校;高等院校,141201,,珞珈山路16号武汉大学,114.367042,30.540093,,湖北省,武汉市,武昌区
B001B1BX48,武汉理工大学余家头校区航海楼,科教文化服务;学校;学校,141200,,洪山区和平街办事处友谊大道武汉理工大学余家头校区武汉理工大学余家头校区,114.357996,30.601826,,湖北省,武汉市,武昌区
B0FFHQJSBL,武汉理工大学计算机科学与技术学院,科教文化服务;学校;高等院校,141201,,和平大道1178号武汉理工大学余家头校区,114.357876,30.609667,,湖北省,武汉市,武昌区
B0FFFLIQON,湖北传媒摄影技师学院,科教文化服务;学校;职业技术学校,141206,,东湖路181号楚天1813号楼501,114.365707,30.566173,027-88569297,湖北省,武汉市,武昌区
B0FFGCDQ8C,武汉理工大学交通学院港口航道与结构工程系,科教文化服务;学校;高等院校,141201,,水运湖路,114.358685,30.609836,,湖北省,武汉市,武昌区
B0FFG64ZIA,武汉理工大学余家头校区计算机科学与技术学院,科教文化服务;学校;高等院校,141201,,和平大道1178号武汉理工大学余家头校区,114.357927,30.609451,,湖北省,武汉市,武昌区
B0FFHFJPVG,武汉大学医学职业技术学院体育办公室,科教文化服务;学校;高等院校,141201,,张之洞路7号附近,114.293745,30.535781,,湖北省,武汉市,武昌区
B0FFJIZ69T,湖北省社会科学院研究生学院,科教文化服务;学校;高等院校,141201,,黄鹂路72号附近,114.362995,30.564194,,湖北省,武汉市,武昌区
B0FFHFF8CM,华中科技大学湖北现代科技学校学习中心,科教文化服务;学校;高等院校,141201,,武车路282附近,114.327572,30.579893,,湖北省,武汉市,武昌区
B0FFF5UMBD,武汉理工大学余家头校区交通学院海洋工程系,科教文化服务;学校;高等院校,141201,,和平大道1178号武汉理工大学余家头校区内,114.357721,30.607952,,湖北省,武汉市,武昌区
B0HU6A1OH6,湖北省武昌实验小学,科教文化服务;学校;小学,141203,,中北路118号,114.351872,30.562365,,湖北省,武汉市,武昌区
B001B1H3BX,武汉大学后勤服务集团人力资源部,科教文化服务;学校;高等院校,141201,,珞珈山16号武汉大学,114.365221,30.53561,,湖北省,武汉市,武昌区
B0FFFLII1H,武汉纺织大学东湖校区办公大楼,科教文化服务;学校;学校,141200,,东湖风景区街道水果湖街道东湖梨园,114.371861,30.578271,,湖北省,武汉市,武昌区
B0FFFLIUZG,武汉理工大学余家头校区学生就业咨询办公室,科教文化服务;学校;高等院校,141201,,和平大道1178号武汉理工大学余家头校区,114.357472,30.608008,,湖北省,武汉市,武昌区
B0FFG6AOEN,武汉理工大学余家头校区余家头校区计算机学院,科教文化服务;学校;高等院校,141201,,和平大道1178号武汉理工大学余家头校区,114.358932,30.609513,,湖北省,武汉市,武昌区
B0FFFLIY1B,武汉理工大学余家头校区交通学院船舶工程系,科教文化服务;学校;高等院校,141201,,和平大道1178号武汉理工大学余家头校区学子路附近,114.359477,30.60685,,湖北省,武汉市,武昌区
B001B09B8A,武汉燃气热力学校,科教文化服务;学校;职业技术学校,141206,,团结路35号,114.343544,30.583233,027-86811107,湖北省,武汉市,武昌区
B0FFFFCUIF,国立武昌高等师范学校化学与分子科学学院,科教文化服务;学校;高等院校,141201,,珞珈山街办事处,114.359844,30.536462,,湖北省,武汉市,武昌区
B0FFLBCSOM,武汉大学社会学院,科教文化服务;学校;高等院校,141201,,八一路299号武汉大学内,114.368067,30.540451,027-68753860;027-68753859,湖北省,武汉市,武昌区
B0FFHHHJMM,湖北美术学院继续教育培育学院招生办公室,科教文化服务;学校;高等院校,141201,,中山路湖北美术学院(昙华林校区),114.316703,30.548195,,湖北省,武汉市,武昌区
B0FFFRJKM9,武汉市广播电视大学(武昌校区),科教文化服务;学校;成人教育,141205,,友谊大道铁机路102号,114.353338,30.602343,,湖北省,武汉市,武昌区
B0FFGCDRJE,武汉理工大学余家头校区西配楼,科教文化服务;学校;学校,141200,,交通一路与青年园北路交叉口西100米,114.356109,30.609098,,湖北省,武汉市,武昌区
B0FFHFJPZQ,武汉大学医学职业技术学院继续教育办公室,科教文化服务;学校;高等院校,141201,,张之洞路与花堤街交叉口东北50米,114.293196,30.535679,,湖北省,武汉市,武昌区
B0FFGER7JO,武汉大学政治与公共管理学院青春健康教育中心,科教文化服务;学校;高等院校,141201,,八一路299号珞珈山,114.367694,30.537996,,湖北省,武汉市,武昌区
B0FFFRJNO3,武汉大学国家海洋行业科研专项项目管理办公室,科教文化服务;学校;高等院校,141201,,珞珈山16号武汉大学茶港路附近,114.357317,30.539065,,湖北省,武汉市,武昌区
B0FFGCDR0Q,武汉理工大学余家头校区港口大楼,科教文化服务;学校;学校,141200,,杨园街办事处和平大道1178号,114.358103,30.608958,,湖北省,武汉市,武昌区
B0FFFOKFAO,国立武汉大学农学院,科教文化服务;学校;高等院校,141201,,八一路299号武汉大学教育科学学院附近,114.360214,30.542917,,湖北省,武汉市,武昌区
B0FFGSINMR,武汉理工大学余区第四教学楼,科教文化服务;学校;学校,141200,,和平大道1178号武汉理工大学余家头校区,114.355323,30.608855,,湖北省,武汉市,武昌区
B0FFGZOZSR,武汉理工大学能源与动力工程学院热能工程系,科教文化服务;学校;高等院校,141201,,交通三路与学子路交叉口北100米,114.358744,30.606479,,湖北省,武汉市,武昌区
B0FFGZMWJK,武汉理工大学能源与动力工程学院动力工程系,科教文化服务;学校;高等院校,141201,,交通三路与学子路交叉口北100米,114.35867,30.606477,,湖北省,武汉市,武昌区
B0G3D93DM3,武汉大学保卫一分部(文理学部),科教文化服务;学校;高等院校,141201,,武汉大学东中区9栋1楼,114.364342,30.532812,,湖北省,武汉市,武昌区
B001B1BXGI,武汉大学第一附属小学,科教文化服务;学校;小学,141203,,八一路299号武汉大学内,114.361804,30.531986,027-68762356,湖北省,武汉市,武昌区
B0FFHF9454,武昌区社区教育学院(黄鹤楼街分校),科教文化服务;学校;成人教育,141205,,黄鹤楼街办事处后长街8号,114.29938,30.539037,,湖北省,武汉市,武昌区
B0FFFGV5NK,武汉音乐学院张之洞路校区教学楼,科教文化服务;学校;学校,141200,,黄鹤楼街办事处临江大道1号,114.291603,30.536704,027-88076720,湖北省,武汉市,武昌区
B0FFFGV5O2,武汉音乐学院张之洞路校区办公楼,科教文化服务;学校;学校,141200,,黄鹤楼街办事处临江大道一号,114.291778,30.53576,,湖北省,武汉市,武昌区
B0FFFLJWCH,武汉理工大学余家头校区交通学院道路与桥梁工程系,科教文化服务;学校;高等院校,141201,,杨园街办事处和平大道1178号武汉理工大学余家头校区,114.360525,30.608099,,湖北省,武汉市,武昌区
B001B0I6Q8,中南财经政法大学首义校区幼儿园(武珞路辅路),科教文化服务;学校;幼儿园,141204,,武珞路114号中南财经政法大学首义校区,114.315109,30.539754,027-88382689;027-87131632,湖北省,武汉市,武昌区
B001B1C7BB,楚天双语幼儿园,科教文化服务;学校;幼儿园,141204,,东湖路181号楚天传媒大厦B座3层,114.366671,30.568263,027-88567968,湖北省,武汉市,武昌区
B001B1H3BV,武汉大学国际交流部港澳台事务办公室,科教文化服务;学校;高等院校,141201,,,114.366633,30.537291,027-68752850,湖北省,武汉市,武昌区
B0FFKXUYNV,武汉理工大学余家头校区创业学院,科教文化服务;学校;高等院校,141201,,和平大道1176-46号附近,114.35613,30.609625,,湖北省,武汉市,武昌区
B001B1CXQ2,武汉理工大学余家头校区余家头校区第一教学楼,科教文化服务;学校;学校,141200,,和平大道1178号武汉理工大学余家头校区,114.35686,30.609166,,湖北省,武汉市,武昌区
B0GDFOW40Q,武汉理工大学余家头校区交通学院,科教文化服务;学校;高等院校,141201,,杨园街办事处和平大道1178号武汉理工大学余家头校区,114.358685,30.609806,,湖北省,武汉市,武昌区
B0G3HC5K6S,湖北中医药大学生物医药工程学院,科教文化服务;学校;高等院校,141201,,,114.314494,30.550033,,湖北省,武汉市,武昌区
B0FFH9V3SM,武汉理工大学余家头校区工程训练中心焊接实训室,科教文化服务;学校;高等院校,141201,,交通四路武汉理工大学(余家头校区),114.354805,30.603529,,湖北省,武汉市,武昌区
B001B1IJ4N,湖北财税职业学院教学楼,科教文化服务;学校;学校,141200,,白沙洲街办事处白沙洲大道519号,114.298514,30.514859,,湖北省,武汉市,武昌区
B001B1CCO2,晒湖小学,科教文化服务;学校;小学,141203,,南湖街办事处雄楚大道64号,114.3205,30.519538,027-88038450,湖北省,武汉市,武昌区
B001B07FHQ,湖北省工会干部学校,科教文化服务;学校;成人教育,141205,,张之洞路234附15号,114.308206,30.533155,,湖北省,武汉市,武昌区
B001B0I6M6,武昌区教育局东亭幼儿园,科教文化服务;学校;幼儿园,141204,,水果湖街办事处中北路东亭小区,114.358198,30.56642,027-86783065,湖北省,武汉市,武昌区
B001B0JT5G,小太阳幼儿园,科教文化服务;学校;幼儿园,141204,,民主路717附12号,114.326042,30.5452,027-87842653,湖北省,武汉市,武昌区
B001B0I8EV,华中科技大学文华模具数控中心,科教文化服务;学校;高等院校,141201,,珞狮路2附1樱花大厦A座13层,114.355505,30.53331,,湖北省,武汉市,武昌区
B001B1CXP6,湖北中医药大学生物医药工程学院职业技术学院,科教文化服务;学校;高等院校,141201,,昙华林188号,114.3144,30.550071,,湖北省,武汉市,武昌区
B001B1BZVI,天源城当代海嘉幼儿园,科教文化服务;学校;幼儿园,141204,,中北路青鱼嘴伟鹏苑小区内,114.354558,30.563214,027-87261857,湖北省,武汉市,武昌区
B0FFHQJSBJ,武汉理工大学动力楼,科教文化服务;学校;学校,141200,,和平大道1178号武汉理工大学余家头校区,114.358745,30.606479,,湖北省,武汉市,武昌区
B001B0I5RL,武汉市武昌区粮道街胭脂路幼儿园,科教文化服务;学校;幼儿园,141204,,后补街83号,114.307948,30.549484,027-88876109,湖北省,武汉市,武昌区
B0FFH2O70B,武汉理工大学能源与动力工程学院余区1舍宿舍管理委员会,科教文化服务;学校;高等院校,141201,,和平大道1178号武汉理工大学余家头校区,114.357476,30.606956,,湖北省,武汉市,武昌区
B0FFGBRZF2,省三保教学楼,科教文化服务;学校;学校,141200,,水果湖街办事处水果湖张家湾小区36号88栋,114.34645,30.54452,,湖北省,武汉市,武昌区
B001B1BWZ9,武汉大学政治与公共管理学院思想政治教育系,科教文化服务;学校;高等院校,141201,,八一路299号珞珈山,114.367762,30.538028,,湖北省,武汉市,武昌区
B001B1IJ1M,湖北财税职业学院-实训楼,科教文化服务;学校;学校,141200,,白沙洲大道519湖北财税职业学院,114.298328,30.51589,,湖北省,武汉市,武昌区
B0GDUA5J7S,武汉理工大学法学与人文社会学院(余区),科教文化服务;学校;高等院校,141201,,杨园街办事处和平大道1040号余家头,114.35664,30.608007,,湖北省,武汉市,武昌区
B001B16OV1,佳禾世纪彩城幼儿园,科教文化服务;学校;幼儿园,141204,,秦园东路5号,114.354352,30.571325,,湖北省,武汉市,武昌区
B0FFGPO64H,金鹰艺术教学楼,科教文化服务;学校;学校,141200,,彭刘杨路读书院23号,114.299103,30.53871,,湖北省,武汉市,武昌区
B0FFKPEOBY,武汉市文昌高级职业学校,科教文化服务;学校;职业技术学校,141206,,民主路23号,114.295745,30.547165,027-88851678;027-88081998,湖北省,武汉市,武昌区
B0FFGPTG62,武汉理工大学余家头校区船舶运输实验实训教学中心船艺综合实训室,科教文化服务;学校;高等院校,141201,,交通二路与青年园南路交叉口东南100米,114.357366,30.607774,,湖北省,武汉市,武昌区
B001B1CXHR,武汉大学社会主义学院,科教文化服务;学校;高等院校,141201,,珞珈山16号武汉大学,114.36436,30.532514,,湖北省,武汉市,武昌区
B0FFHM9ZYV,水果湖第一小学综合楼,科教文化服务;学校;学校,141200,,东三路3附3号,114.348528,30.54374,,湖北省,武汉市,武昌区
B0FFI0K1YV,武汉大学教6号楼,科教文化服务;学校;学校,141200,,珞珈山街办事处16号,114.360263,30.538951,,湖北省,武汉市,武昌区
B001B09Q38,樱花双语幼儿园,科教文化服务;学校;幼儿园,141204,,东亭路10号东亭花园内,114.363876,30.569128,027-86785167,湖北省,武汉市,武昌区
B001B0I62V,湖北省邮电职业中等专业学校,科教文化服务;学校;职业技术学校,141206,,八一路208号,114.352676,30.534486,027-87870310,湖北省,武汉市,武昌区
B0FFHTNQD4,武大经管院EDP中心,科教文化服务;学校;学校,141200,,八一路299号武汉大学经济与管理学院B158室,114.373358,30.539104,027-87058603,湖北省,武汉市,武昌区
B0FFIAN477,中科院物数所综合楼,科教文化服务;学校;学校,141200,,小洪山西区30号,114.347991,30.539386,,湖北省,武汉市,武昌区
B0FFG3YE5X,武汉大学资产部,科教文化服务;学校;高等院校,141201,,珞珈山16号武汉大学,114.360289,30.5429,,湖北省,武汉市,武昌区
B0HURM2UKE,武昌实验小学(东湖国际校区),科教文化服务;学校;小学,141203,,兴武路,114.352313,30.557148,,湖北省,武汉市,武昌区
B001B1C0OK,武昌中华路小学(金都校区),科教文化服务;学校;小学,141203,,中山路积玉桥51号,114.3029,30.556211,027-88215819,湖北省,武汉市,武昌区
B0FFG411CY,武汉大学招生就业处,科教文化服务;学校;高等院校,141201,,珞珈山16号武汉大学,114.366211,30.537517,,湖北省,武汉市,武昌区
B0FFG411D1,武汉大学外事部,科教文化服务;学校;高等院校,141201,,珞珈山16号武汉大学,114.366635,30.537259,,湖北省,武汉市,武昌区
B0FFG411D0,武汉大学党办,科教文化服务;学校;高等院校,141201,,珞珈山16号武汉大学,114.366608,30.537379,,湖北省,武汉市,武昌区
B0FFG411CZ,武汉大学校办,科教文化服务;学校;高等院校,141201,,珞珈山16号武汉大学,114.366689,30.53743,,湖北省,武汉市,武昌区
B001B16G5K,贝乐欣幼儿园,科教文化服务;学校;幼儿园,141204,,恒安街78附51,114.31635,30.506447,027-88772520;027-88772129;13720188803,湖北省,武汉市,武昌区
B0HURM2UKE,武昌实验小学(东湖国际校区),科教文化服务;学校;小学,141203,,兴武路,114.352313,30.557148,,湖北省,武汉市,武昌区
B001B1HAAA,湖北中医药大学昙华林校区教学楼,科教文化服务;学校;学校,141200,,昙华林188号,114.31485,30.54995,,湖北省,武汉市,武昌区
B0FFGN3OEB,武汉大学委员会宣传部,科教文化服务;学校;高等院校,141201,,珞珈山16号,114.358032,30.533912,027-68752632,湖北省,武汉市,武昌区
B0G0GHJK60,湖北美术学院创客空间大学生艺术创新中心,科教文化服务;学校;高等院校,141201,,,114.316915,30.547734,,湖北省,武汉市,武昌区
B0G1FZL5SA,武汉大学新能源大楼(建设中),科教文化服务;学校;学校,141200,,东湖南路8号,114.366748,30.544656,,湖北省,武汉市,武昌区
B0FFHE3VOP,武汉大学学生工作部,科教文化服务;学校;学校,141200,,八一路299号武汉大学本科生院楼,114.357978,30.533856,,湖北省,武汉市,武昌区
B001B1DC32,武汉纺织大学东湖校区综合教学楼,科教文化服务;学校;学校,141200,,梨园侧路26附近,114.371458,30.578831,,湖北省,武汉市,武昌区
B0FFM3G5BZ,武汉理工大学余家头校区交通学院交通工程系,科教文化服务;学校;高等院校,141201,,和平大道1178号武汉理工大学余家头校区,114.360237,30.608064,,湖北省,武汉市,武昌区
B001B1IJ09,武汉大学基础医学院学生会,科教文化服务;学校;高等院校,141201,,水果湖街街道东湖路185号,114.357531,30.553403,,湖北省,武汉市,武昌区
B001B1DI9I,武汉大学电工训练中心,科教文化服务;学校;高等院校,141201,,珞珈山路16号附近,114.360468,30.540617,,湖北省,武汉市,武昌区
B0FFG6L5AL,武汉大学-5教学楼,科教文化服务;学校;学校,141200,,八一路299号武汉大学内附近,114.363619,30.543119,,湖北省,武汉市,武昌区
B0FFG1PPEU,武汉大学国际交流部,科教文化服务;学校;高等院校,141201,,八一路299号(武汉大学),114.366789,30.537569,,湖北省,武汉市,武昌区
B0FFG7DP9U,南湖街老年大学,科教文化服务;学校;成人教育,141205,,南湖街办事处雅安街世纪宏图297号,114.321157,30.50994,,湖北省,武汉市,武昌区
B001B16DBD,小太阳双语幼儿园(和平大道),科教文化服务;学校;幼儿园,141204,,武车四村667号(近和平大道),114.320784,30.57711,,湖北省,武汉市,武昌区
B0FFG77CXV,农银大学武汉培训学院,科教文化服务;学校;学校,141200,,中北路186号,114.355036,30.56906,,湖北省,武汉市,武昌区
B0FFFFXDSF,武汉大学化学与分子科学学院西区一楼创隆厅,科教文化服务;学校;学校,141200,,珞珈山16号武汉大学,114.358755,30.536344,,湖北省,武汉市,武昌区
B001B1BWH8,武汉大学学生俱乐部,科教文化服务;学校;高等院校,141201,,八一路299号武汉大学内,114.362461,30.539814,,湖北省,武汉市,武昌区
B0FFF5V6IE,武汉市石牌岭高级职业中学,科教文化服务;学校;职业技术学校,141206,,石牌岭路13号石牌岭,114.342646,30.524639,027-87212720;027-87882855,湖北省,武汉市,武昌区
B0FFHLVAJD,石牌岭高级职业中学招生就业办公室,科教文化服务;学校;职业技术学校,141206,,石牌岭路13号,114.342061,30.525052,,湖北省,武汉市,武昌区
B001B1DIDU,武汉大学离退休工作处,科教文化服务;学校;高等院校,141201,,八一路299号(武汉大学),114.366396,30.531817,,湖北省,武汉市,武昌区
B0FFG56PIU,武汉大学医学部病解房,科教文化服务;学校;学校,141200,,东湖路115号武汉大学医学部,114.354428,30.554694,,湖北省,武汉市,武昌区
B0FFHQOYAO,湖北大学附属中学-教学楼,科教文化服务;学校;学校,141200,,团结路8号湖北大学附属中学,114.336901,30.588717,,湖北省,武汉市,武昌区
B001B170OV,小博士幼儿园(彭刘杨路),科教文化服务;学校;幼儿园,141204,,彭刘杨路159号前栋3楼,114.296755,30.541151,,湖北省,武汉市,武昌区
B0FFHEOOHE,陈家沟太极拳武校(中南分校),科教文化服务;学校;学校,141200,,洪山路2号附近,114.340354,30.544003,13307166333,湖北省,武汉市,武昌区
B001B1C6PN,湖北现代科技学校,科教文化服务;学校;职业技术学校,141206,,徐家棚街办事处徐东学院路9号,114.32757,30.579891,,湖北省,武汉市,武昌区
B001B1BXVZ,武汉大学信息与计算科学系,科教文化服务;学校;高等院校,141201,,珞珈山16号武汉大学,114.364656,30.540022,,湖北省,武汉市,武昌区
B0FFH1SROD,武昌区乃园幼儿园,科教文化服务;学校;幼儿园,141204,,乃园94附1号,114.295629,30.544016,,湖北省,武汉市,武昌区
B0FFF35L1F,武汉大学留学生俱乐部,科教文化服务;学校;高等院校,141201,,珞珈山街街道珞珈山16号武汉大学八一路生鲜市场,114.37391,30.537642,,湖北省,武汉市,武昌区
B0FFGPOGN6,小博士幼儿园(杨园街),科教文化服务;学校;幼儿园,141204,,杨园街50号附近,114.339331,30.6024,15377538069,湖北省,武汉市,武昌区
B0FFL5NTMV,湖北省武昌实验寄宿小学黄鹤楼校区,科教文化服务;学校;中学|科教文化服务;学校;小学,141202|141203,,大成路45号,114.29776,30.544745,,湖北省,武汉市,武昌区
B0FFFDCRDA,惠誉双语幼儿园,科教文化服务;学校;幼儿园,141204,,惠誉路惠誉花园,114.332671,30.586198,027-50800211,湖北省,武汉市,武昌区
B0FFGPPSVI,武汉理工大学幼儿园,科教文化服务;学校;幼儿园,141204,,武汉理工大学(和平大道1178号),114.352742,30.605415,027-86533969,湖北省,武汉市,武昌区
B001B0JU6I,武昌区四美塘小学,科教文化服务;学校;小学,141203,,四美塘路2号,114.336858,30.599634,,湖北省,武汉市,武昌区
B0FFG651R9,艺苗幼儿园(秦园路),科教文化服务;学校;幼儿园,141204,,秦园路58号,114.335434,30.585498,,湖北省,武汉市,武昌区
B001B0IRSH,中共湖北省委直属机关工作委员会党校,科教文化服务;学校;学校,141200,,紫阳东路10号,114.331495,30.530781,,湖北省,武汉市,武昌区
B001B1CX9F,八铺街小学,科教文化服务;学校;小学,141203,,兴隆街15号,114.299045,30.522716,027-88113960,湖北省,武汉市,武昌区
B001B1C6W2,湖北省跳水学校,科教文化服务;学校;学校,141200,,体育馆路1号,114.333444,30.547267,,湖北省,武汉市,武昌区
B0FFIV0446,武汉大学哲学学院,科教文化服务;学校;高等院校,141201,,武汉大学振华楼,114.358939,30.534772,027-68752861,湖北省,武汉市,武昌区
B0FFHB461S,安琪儿幼教中心,科教文化服务;学校;幼儿园,141204,,,114.340415,30.595342,15327407627,湖北省,武汉市,武昌区
B0FFFLJU23,乐天幼儿园,科教文化服务;学校;幼儿园,141204,,杨园街建设新村10号,114.339939,30.603576,,湖北省,武汉市,武昌区
B001B1DIA8,武汉大学实验室与设备管理处,科教文化服务;学校;高等院校,141201,,珞珈山路16号武汉大学,114.360238,30.542871,027-68772019,湖北省,武汉市,武昌区
B0FFIWUZ1D,启程幼儿园,科教文化服务;学校;幼儿园,141204,,徐东大街逸居苑10号楼,114.34215,30.592444,18771022081,湖北省,武汉市,武昌区
B001B1CX7V,启明星艺术幼儿园(钢厂路),科教文化服务;学校;幼儿园,141204,,白沙洲街办事处涂家沟武泰闸小学对面,114.304164,30.517766,15827505968,湖北省,武汉市,武昌区
B0FFGBWFY6,武昌实验幼儿园,科教文化服务;学校;幼儿园,141204,,和平大道513号绿地金融城内,114.322733,30.579093,027-88105680,湖北省,武汉市,武昌区
B001B1BXS4,武汉大学水质工程系,科教文化服务;学校;高等院校,141201,,珞珈山16号武汉大学,114.363286,30.542633,,湖北省,武汉市,武昌区
B0FFHHCW8Z,特蕾新首府幼儿园,科教文化服务;学校;幼儿园,141204,,积玉桥街办事处和平大道三角路恒大首府小区内,114.319882,30.573096,027-88516731,湖北省,武汉市,武昌区
B0FFHO2SUV,赵家墩英济双语幼儿园,科教文化服务;学校;幼儿园,141204,,徐佳彤街道三角花园赵家墩小区3栋1-2层,114.318522,30.574763,027-59335676,湖北省,武汉市,武昌区
B0FFHB49EC,知音幼儿园,科教文化服务;学校;幼儿园,141204,,东湖路179号,114.368761,30.57175,027-68887977;027-68890586,湖北省,武汉市,武昌区
B001B1ATX2,武昌区教委新桥幼儿园,科教文化服务;学校;幼儿园,141204,,白沙洲解放桥社区玻璃厂街113-2号,114.297906,30.523829,,湖北省,武汉市,武昌区
B001B1DBZH,武汉大学幼儿园四分园,科教文化服务;学校;幼儿园,141204,,东湖路103号,114.34884,30.553836,027-68759312,湖北省,武汉市,武昌区
B0FFH81O0D,斯迈特双语婴幼儿园,科教文化服务;学校;幼儿园,141204,,中南路街办事处武珞路五巷99号凯乐花园7号楼,114.324413,30.538927,027-50483976,湖北省,武汉市,武昌区
B0FFFFNNFW,武昌四美塘幼儿园,科教文化服务;学校;幼儿园,141204,,杨园街桥梁特1号,114.339841,30.605225,,湖北省,武汉市,武昌区
B0FFGPO8N1,蔚蓝宝贝幼儿园,科教文化服务;学校;幼儿园,141204,,积玉桥前进路金地国际花园hr2栋,114.314114,30.56056,,湖北省,武汉市,武昌区
B001B1CEZQ,武汉市广播电视中等专业学校,科教文化服务;学校;职业技术学校,141206,,余家头铁机路102号,114.353263,30.602567,,湖北省,武汉市,武昌区
B0FFHZUSM2,希望之星社区托管中心,科教文化服务;学校;幼儿园,141204,,复兴路19号保安街136小区,114.29951,30.528008,15071368897,湖北省,武汉市,武昌区
B0FFH90RVM,佳禾幼儿园,科教文化服务;学校;幼儿园,141204,,余家头水厂德平路怡景苑小区,114.351012,30.61566,,湖北省,武汉市,武昌区
B0FFGPNXUJ,武汉金太阳艺术幼儿园,科教文化服务;学校;幼儿园,141204,,团结大道14附5号,114.347611,30.580925,15327388832,湖北省,武汉市,武昌区
B0FFFOGCYO,武汉大学中南医院-能源中心,科教文化服务;学校;高等院校,141201,,武汉大学中南医院内,114.354039,30.554754,,湖北省,武汉市,武昌区
B0FFGBXVPH,育红幼儿园,科教文化服务;学校;幼儿园,141204,,安居苑小区内,114.333771,30.592126,,湖北省,武汉市,武昌区
B0FFGZADPC,武昌中南路幼儿园,科教文化服务;学校;幼儿园,141204,,八一路铁路小区158号,114.341559,30.538284,,湖北省,武汉市,武昌区
B0FFFFMW1Y,华锦新乐思幼儿园,科教文化服务;学校;幼儿园,141204,,南湖华锦花园附1号,114.318185,30.502694,027-88020543,湖北省,武汉市,武昌区
B0FFHP3JDE,武昌区中北路幼儿园,科教文化服务;学校;幼儿园,141204,,水果湖街办事处中北路车家岭街中北春天小区1栋,114.354775,30.566246,,湖北省,武汉市,武昌区
B001B1ARJ4,星苑双语幼儿园,科教文化服务;学校;幼儿园,141204,,白沙洲街街道武泰闸花园小区48栋,114.295481,30.513184,,湖北省,武汉市,武昌区
B0FFLPFMWH,马荣国际幼教中心,科教文化服务;学校;幼儿园,141204,,徐东二路2号水岸星城花园,114.341254,30.574614,,湖北省,武汉市,武昌区
B0FFI54W4F,武昌区紫阳湖幼儿园,科教文化服务;学校;幼儿园,141204,,紫湖村路武汉市第九中学,114.302169,30.530678,,湖北省,武汉市,武昌区
B0FFLCLRCK,中南公馆・儿童之家,科教文化服务;学校;幼儿园,141204,,中南路中南大公馆别墅A1A2,114.333231,30.534588,15007147622;13476085916,湖北省,武汉市,武昌区
B0FFG38TQM,武昌区大风车幼儿园,科教文化服务;学校;幼儿园,141204,,民主路217附近,114.303222,30.545399,,湖北省,武汉市,武昌区
B0FFI72OEX,浦园国际幼儿园,科教文化服务;学校;幼儿园,141204,,和平大道750号绿地饕界美食街3楼,114.324831,30.582931,027-83958895,湖北省,武汉市,武昌区
B0FFFDB0A0,大方启蒙教育,科教文化服务;学校;幼儿园,141204,,临江大道66号金都汉宫小区1栋,114.301622,30.556416,,湖北省,武汉市,武昌区
B0FFHLYSZV,童风雅颂国学幼儿园,科教文化服务;学校;幼儿园,141204,,口未来公馆B座5A层,114.345962,30.528011,,湖北省,武汉市,武昌区
B0FFFDBXXQ,武昌区育苗幼儿园,科教文化服务;学校;幼儿园,141204,,粮道街胭脂路花园山1号,114.307464,30.551311,027-88012298,湖北省,武汉市,武昌区
B0FFGKE9Y3,华大首义幼儿园,科教文化服务;学校;幼儿园,141204,,首义路首义名居,114.310798,30.536455,18672968336,湖北省,武汉市,武昌区
B0FFIA8I96,武汉市叮咚泉幼儿园,科教文化服务;学校;幼儿园,141204,,静安路8附44号,114.320577,30.523005,027-88776167;18171235536,湖北省,武汉市,武昌区
B0FFGPOGLR,福星幼儿园(巡司河街),科教文化服务;学校;幼儿园,141204,,白沙洲街办事处巡司河街汇文新都d区1号楼门面,114.302129,30.524826,15717148402,湖北省,武汉市,武昌区
B0FFIPJD2U,融侨华府幼儿园,科教文化服务;学校;幼儿园,141204,,和平大道666号爱迪国际,114.317294,30.567877,13995656681,湖北省,武汉市,武昌区
B0G227VTL4,武昌区楚天乐学幼儿园,科教文化服务;学校;幼儿园,141204,,楚天都市雅园12号楼,114.36078,30.572432,,湖北省,武汉市,武昌区
B0FFGFVZG0,湖北广播电视台幼儿园,科教文化服务;学校;幼儿园,141204,,湖北彩电中心大院内,114.324766,30.552416,,湖北省,武汉市,武昌区
B0FFGCB5C7,二药厂幼儿园,科教文化服务;学校;幼儿园,141204,,粮道街办事处鼓架坡30号,114.312967,30.54966,,湖北省,武汉市,武昌区
B0FFGLW9FR,长江紫都幼儿园,科教文化服务;学校;幼儿园,141204,,武金堤路,114.281455,30.506929,027-88157966;027-88157866,湖北省,武汉市,武昌区
B0FFGCB3U8,海贝爱丁堡幼儿园,科教文化服务;学校;幼儿园,141204,,中华路街办事处民主路三道街112号,114.306439,30.546135,,湖北省,武汉市,武昌区
B0HUNH9IUJ,校幼儿园,科教文化服务;学校;幼儿园,141204,,友谊大道368号湖北大学内,114.334069,30.576619,,湖北省,武汉市,武昌区
B0FFG4J71X,乔登美语百瑞景幼儿园,科教文化服务;学校;幼儿园,141204,,武昌百瑞景中央生活区瑞景路武汉第一寄宿小学对面,114.332302,30.520874,027-87871717,湖北省,武汉市,武昌区
B0G1B1BT25,叮咚泉托幼中心,科教文化服务;学校;幼儿园,141204,,静安路8附27号,114.321321,30.523731,027-88776167,湖北省,武汉市,武昌区
B0GUFXHDOF,新乔百瑞景幼儿园,科教文化服务;学校;幼儿园,141204,,宝通寺路26号,114.332892,30.523948,027-50668322,湖北省,武汉市,武昌区
B0G3YCUR4U,快乐宝贝幼儿园,科教文化服务;学校;幼儿园,141204,,,114.292554,30.523548,,湖北省,武汉市,武昌区
B0FFG6567U,武昌晶晶幼儿园,科教文化服务;学校;幼儿园,141204,,紫阳路派出所附近,114.299043,30.529594,027-88050650,湖北省,武汉市,武昌区
B0GRHCX31N,武昌区七色花幼儿园,科教文化服务;学校;幼儿园,141204,,白沙洲大道郁馨花园12栋,114.295734,30.508318,027-88733286,湖北省,武汉市,武昌区
B0GKBAF32D,睿贝幼儿园,科教文化服务;学校;幼儿园,141204,,,114.32098,30.541735,13207103913,湖北省,武汉市,武昌区
B0FFH1EIV3,武汉大学学生社团指导中心,科教文化服务;学校;高等院校,141201,,松园东路武汉大学文理学部,114.366274,30.541954,,湖北省,武汉市,武昌区
B0HGAA0XJ4,武汉光谷职业学院(东湖校区),科教文化服务;学校;职业技术学校,141206,,东湖梨园渔光村特1号,114.373123,30.578428,027-87181666,湖北省,武汉市,武昌区
B0FFIP4A9M,旺斯达,科教文化服务;学校;幼儿园|科教文化服务;培训机构;培训机构,141204|141400,,南安街与静安路交叉口西南50米,114.320131,30.523057,,湖北省,武汉市,武昌区
B0HGTZ9C8M,新桥幼儿园(八铺围堤),科教文化服务;学校;幼儿园,141204,,玻璃钢厂路,114.293463,30.525963,,湖北省,武汉市,武昌区
B001B0724X,湖北省审计干部培训中心,科教文化服务;学校;成人教育,141205,,东亭路7号,114.36061,30.569357,,湖北省,武汉市,武昌区
B0FFFVKXM8,丽晶中泰幼儿园,科教文化服务;学校;幼儿园,141204,,堤东街1号,114.293886,30.513889,027-88118208;15172490890,湖北省,武汉市,武昌区
B0FFG1OVRJ,武汉大学学工部,科教文化服务;学校;高等院校,141201,,珞珈山16号武汉大学,114.360508,30.542972,,湖北省,武汉市,武昌区
B0FFGCBDCS,红黄蓝幼儿园(国盛街),科教文化服务;学校;幼儿园,141204,,和平大道余家头特1号,114.350254,30.610542,027-86529289;15002782655,湖北省,武汉市,武昌区
B0FFFGUF2F,七彩贝贝幼儿园,科教文化服务;学校;幼儿园,141204,,万科金域华府3层,114.350471,30.599879,13007190995,湖北省,武汉市,武昌区
B0FFLGLXCX,武汉市第九中学综合楼,科教文化服务;学校;学校,141200,,紫湖村路,114.302474,30.5293,,湖北省,武汉市,武昌区
B001B1BU72,武汉市武昌区春苗幼儿园,科教文化服务;学校;幼儿园,141204,,徐东路汪家墩团结新村特一栋,114.34887,30.58071,,湖北省,武汉市,武昌区
B001B1CLPM,武汉市可得龙国际幼儿园,科教文化服务;学校;幼儿园,141204,,南湖花园建安街水域天际小区内,114.323181,30.50282,027-88433488,湖北省,武汉市,武昌区
B0FFFGUTZU,武汉市白桦林幼儿园,科教文化服务;学校;幼儿园,141204,,杨园街道友谊大道铁机路102号,114.353262,30.602569,027-87741047,湖北省,武汉市,武昌区
B0FFG4GQ7H,风华天城幼儿园,科教文化服务;学校;幼儿园,141204,,建安街北200米,114.32255,30.505911,027-88433557,湖北省,武汉市,武昌区
B0FFKUX4MN,武汉大学物理学院新楼,科教文化服务;学校;学校,141200,,珞珈路75附近,114.363132,30.533568,,湖北省,武汉市,武昌区
B0FFHQRW18,中共湖北省工商行政管理局党校,科教文化服务;学校;学校,141200,,东湖路银苑小区东北侧约40米,114.360188,30.559314,,湖北省,武汉市,武昌区
B001B1DIAN,武汉大学电子显微镜中心,科教文化服务;学校;高等院校,141201,,科技路武汉大学质延楼附近,114.36223,30.53434,,湖北省,武汉市,武昌区
B001B1ARRH,七星欢欢幼儿园,科教文化服务;学校;幼儿园,141204,,友谊大道七星绿色花园15栋,114.338576,30.581303,027-86821106,湖北省,武汉市,武昌区
B0FFG3YHTN,武汉大学力学实验楼,科教文化服务;学校;学校,141200,,珞珈山16号武汉大学,114.360428,30.544046,,湖北省,武汉市,武昌区
B0FFHHHKX1,湖北美术学院昙华林校区2教学楼,科教文化服务;学校;学校,141200,,中山路374号湖北美术学院内,114.316954,30.547223,,湖北省,武汉市,武昌区
B0FFG3YHTX,武汉大学农田水利楼,科教文化服务;学校;学校,141200,,珞珈山16号武汉大学,114.362569,30.542179,,湖北省,武汉市,武昌区
B0FFHRO6CM,宝宝幼儿园(下新河后街),科教文化服务;学校;幼儿园,141204,,临江大道291附6号,114.315707,30.572302,13517282667,湖北省,武汉市,武昌区
B0FFG3YHTV,武汉大学水工实验楼,科教文化服务;学校;学校,141200,,珞珈山16号武汉大学,114.361491,30.542078,,湖北省,武汉市,武昌区
B0FFG3YHTT,武汉大学桃园教8楼,科教文化服务;学校;学校,141200,,珞珈山16号武汉大学,114.362456,30.542581,,湖北省,武汉市,武昌区
B0FFG411CQ,武汉大学教学实验楼,科教文化服务;学校;学校,141200,,珞珈山16号武汉大学,114.3628,30.541112,,湖北省,武汉市,武昌区
B0FFG3YE5A,武汉大学温室,科教文化服务;学校;学校,141200,,珞珈山16号武汉大学,114.360658,30.535477,,湖北省,武汉市,武昌区
B001B16CDZ,爱弥儿江南明珠幼儿园,科教文化服务;学校;幼儿园,141204,,新生路2号附2号,114.312341,30.568867,027-88939022;13871515818;15927380322,湖北省,武汉市,武昌区
B0FFG412AH,武汉大学当代楼,科教文化服务;学校;学校,141200,,珞珈山16号武汉大学,114.359589,30.53324,,湖北省,武汉市,武昌区
B0FFFGV22S,新星幼儿园(保安街),科教文化服务;学校;幼儿园,141204,,保安街390号,114.305887,30.523837,13638670927,湖北省,武汉市,武昌区
B0FFFGV5PJ,爱心经典幼儿园,科教文化服务;学校;幼儿园,141204,,,114.354222,30.577964,027-88515297,湖北省,武汉市,武昌区
B0FFLGAII9,湖北省残疾人职业培训学校教学点,科教文化服务;学校;职业技术学校,141206,,黄鹤楼街街道体育街特1号(烈士街交叉口),114.304046,30.537846,,湖北省,武汉市,武昌区
B0HA2AO7MW,武珞路实验初级中学,科教文化服务;学校;学校,141200,,武珞路391号,114.329195,30.537884,,湖北省,武汉市,武昌区
B0HAVUAI61,武昌佛学院,科教文化服务;学校;学校,141200,,宝通寺内,114.341206,30.531912,,湖北省,武汉市,武昌区
B0G0O5VJ11,武汉大学力学楼,科教文化服务;学校;学校,141200,,武汉大学工学部内,114.360488,30.543989,,湖北省,武汉市,武昌区
B0G0O5VJ11,武汉大学力学楼,科教文化服务;学校;学校,141200,,武汉大学工学部内,114.360488,30.543989,,湖北省,武汉市,武昌区
B0FFHC7CXQ,武昌区智慧宝幼儿园,科教文化服务;学校;幼儿园,141204,,武泰闸涂家沟152号,114.304795,30.51708,,湖北省,武汉市,武昌区
B0FFFY97MV,武汉大学总裁班,科教文化服务;学校;学校,141200,,湖北科技创业大厦B座9层,114.35571,30.53629,027-68756739,湖北省,武汉市,武昌区
B0FFHH75ZC,智慧星国际连锁幼教,科教文化服务;学校;幼儿园,141204,,建安街300号水域天际小区北门,114.323011,30.502921,,湖北省,武汉市,武昌区
B0FFIKWCPG,阳光蓓佳幼儿园(北门),科教文化服务;学校;幼儿园,141204,,石牌岭西路特1-18号附近,114.33724,30.520393,,湖北省,武汉市,武昌区
B0FFL9PU4Z,武汉市武昌区耀华幼儿园,科教文化服务;学校;幼儿园,141204,,中北路109号安顺家园内,114.336236,30.553602,027-87827866,湖北省,武汉市,武昌区
B001B1701Z,武昌区教师进修学校,科教文化服务;学校;成人教育,141205,,首义新村159号,114.308357,30.53891,,湖北省,武汉市,武昌区
B0G2UC4QOB,湖北大学商学院教3号楼,科教文化服务;学校;学校,141200,,徐家棚办事处友谊大道368号,114.330734,30.576789,,湖北省,武汉市,武昌区
B0FFHD73GQ,武汉市武昌区楚禾幼儿园,科教文化服务;学校;幼儿园,141204,,雅安街老区79号,114.310405,30.510443,027-88708858,湖北省,武汉市,武昌区
B0FFHYBPAZ,武汉市一级幼儿园,科教文化服务;学校;幼儿园,141204,,安邻街与平安路交叉口,114.319725,30.506244,027-88771418,湖北省,武汉市,武昌区
B0FFHD5C7O,第三三零三工厂幼儿园,科教文化服务;学校;幼儿园,141204,,白云一路(白云洞景区),114.284505,30.340235,,湖北省,武汉市,武昌区
B0FFFLII41,东湖大地幼儿园(梨园路),科教文化服务;学校;幼儿园,141204,,徐东大街189号东湖天下小区内4号门,114.371415,30.577783,027-88750068,湖北省,武汉市,武昌区
B0FFHHHKWP,湖北美术学院昙华林校区6号教学楼,科教文化服务;学校;学校,141200,,中山路374号(湖北美术学院昙华林校区),114.315437,30.54969,,湖北省,武汉市,武昌区
B0FFHBO1HQ,湖北经济学院成教站,科教文化服务;学校;成人教育,141205,,解放路444号(楚风楼4楼),114.299897,30.547847,15337146756,湖北省,武汉市,武昌区
B0FFHHHH00,湖北美术学院昙华林校区4号教学楼,科教文化服务;学校;学校,141200,,中山路374号,114.315917,30.547792,,湖北省,武汉市,武昌区
B0FFGPYQFE,武昌区教育局大东门幼儿园,科教文化服务;学校;幼儿园,141204,,首义街大东门铁路小区内1号武昌区教育局,114.320245,30.53473,,湖北省,武汉市,武昌区
B001B16LPR,英济双语艺术幼儿园,科教文化服务;学校;幼儿园,141204,,徐东大街逸居苑11号楼,114.356333,30.574636,,湖北省,武汉市,武昌区
B0FFGCDQFX,武汉理工大学余家头校区后勤办公室,科教文化服务;学校;高等院校,141201,,铁机路493附近,114.355342,30.604901,,湖北省,武汉市,武昌区
B0FFHHHFIM,湖北美术学院昙华林校区绘画教学楼,科教文化服务;学校;学校,141200,,中山路374号湖北美术学院内,114.315552,30.549667,,湖北省,武汉市,武昌区
B0FFFCLO9U,湖北省省直机关第一幼儿园,科教文化服务;学校;幼儿园,141204,,首义路街办事处千家街30号,114.314298,30.531041,027-88073307,湖北省,武汉市,武昌区
B0FFGER7JU,中共武汉大学委员会组织部、党校,科教文化服务;学校;学校,141200,,珞珈山(八一路299号),114.366209,30.537474,,湖北省,武汉市,武昌区
B0FFG6AOEI,武汉理工大学余家头校区主楼,科教文化服务;学校;学校,141200,,和平大道1178号武汉理工大学余家头校区,114.356663,30.609111,,湖北省,武汉市,武昌区
B001B1C4N1,武昌区南湖第二小学,科教文化服务;学校;小学,141203,,雅安街3号,114.311221,30.510526,,湖北省,武汉市,武昌区
B001B1CWHA,武昌区南湖第一小学(南校区),科教文化服务;学校;小学,141203,,富安街53号附近,114.316471,30.501578,,湖北省,武汉市,武昌区
B001B1C1HW,武昌区教育局教工幼儿园,科教文化服务;学校;幼儿园,141204,,尚隆路19号,114.314349,30.557952,,湖北省,武汉市,武昌区
B001B1H27Z,武汉老年大学(武大分校),科教文化服务;学校;成人教育,141205,,八一路340号武汉大学东湖楚天府8栋,114.366398,30.531815,,湖北省,武汉市,武昌区
B0FFINIES4,逸居苑英济美语艺术幼儿园,科教文化服务;学校;幼儿园,141204,,徐东大街逸居苑11号楼,114.343359,30.592285,027-88708288,湖北省,武汉市,武昌区
B0FFFY6XZ7,中国科学院武汉分院幼儿园,科教文化服务;学校;幼儿园,141204,,科技路2号,114.351885,30.53656,027-87197660,湖北省,武汉市,武昌区
B0FFG7R0YO,武昌区志愿者学校,科教文化服务;学校;学校,141200,,雅安街293号附近,114.321311,30.509847,,湖北省,武汉市,武昌区
B001B1E1PT,武汉大学-Lab View俱乐部,科教文化服务;学校;高等院校,141201,,武汉大学,114.360434,30.540612,,湖北省,武汉市,武昌区
B0FFKIW19E,武汉市武昌区瑞吉欧幼儿园,科教文化服务;学校;幼儿园,141204,,洪山路69号附近,114.345736,30.546338,,湖北省,武汉市,武昌区
B0FFHQGBR4,武汉理工大学余家头校区第一教学楼,科教文化服务;学校;学校,141200,,和平大道1178号武汉理工大学余家头校区,114.356771,30.609119,,湖北省,武汉市,武昌区
B001B1CWQT,武昌区柴林幼儿园,科教文化服务;学校;幼儿园,141204,,柴林头东区58号,114.349056,30.598733,027-88233882,湖北省,武汉市,武昌区
B001B1BX8I,武汉大学资源与环境科学学院环境工程系,科教文化服务;学校;高等院校,141201,,八一路299号武汉大学,114.363065,30.544705,,湖北省,武汉市,武昌区
B0HRJ5NLT7,武汉市武昌区珞珈山幼儿园,科教文化服务;学校;幼儿园,141204,,宝通寺路16号,114.337537,30.526995,,湖北省,武汉市,武昌区
B0FFH1A6Y4,湖北中医药大学湖北现代科技学校教学站,科教文化服务;学校;高等院校,141201,,武车路282附近,114.327569,30.579897,,湖北省,武汉市,武昌区
B001B1DI64,武汉大学教师教学发展中心,科教文化服务;学校;高等院校,141201,,八一路299号武汉大学内,114.361053,30.536275,,湖北省,武汉市,武昌区
B001B1DI8Q,武汉大学逸夫楼(武汉大学湖滨5舍西南),科教文化服务;学校;学校,141200,,武汉大学,114.367955,30.539105,,湖北省,武汉市,武昌区
B0FFLFONA6,武汉市武昌区社会主义学校,科教文化服务;学校;学校,141200,,丁字桥路58号,114.330303,30.524243,,湖北省,武汉市,武昌区
B0FFHB9BZG,武汉市武昌徐东小区星星幼儿园,科教文化服务;学校;幼儿园,141204,,友谊大道481附1号,114.343872,30.591814,027-86719347,湖北省,武汉市,武昌区
B0FFHQXDG7,武汉市武昌区蒙世学堂幼儿园,科教文化服务;学校;幼儿园,141204,,水果湖街办事处中北路147号楚汉新居2号门旁,114.348696,30.560212,027-87279788;18162791083,湖北省,武汉市,武昌区
B0FFIE44LJ,武汉大学振华楼,科教文化服务;学校;学校,141200,,武汉大学本科生院楼东北角,114.358897,30.534808,,湖北省,武汉市,武昌区
B0FFH2O5DS,武汉理工大学船员远程计算机终端考场,科教文化服务;学校;学校,141200,,交通三路与青年园南路交叉口西南50米,114.357579,30.608168,,湖北省,武汉市,武昌区
B0FFFDCGTS,湖北中医药大学离退休工作处,科教文化服务;学校;高等院校,141201,,昙华林188号,114.311692,30.550651,,湖北省,武汉市,武昌区
B0FFHC8CUX,武昌区白鹭街小学,科教文化服务;学校;小学,141203,,白鹭街23号,114.343157,30.553203,027-87312236;027-51238985,湖北省,武汉市,武昌区
B0FFHHICND,武汉经典化妆学校,科教文化服务;学校;学校,141200,,中山路424号万金国际广场2栋15楼(4号地铁武昌火车站D出口直达),114.317511,30.531286,,湖北省,武汉市,武昌区
B0G0776FMC,武汉纺织大学东湖校区8栋B,科教文化服务;学校;学校,141200,,,114.37041,30.579432,,湖北省,武汉市,武昌区
B0G0L5HJI2,武汉纺织大学东湖校区8栋C,科教文化服务;学校;学校,141200,,,114.370738,30.579593,,湖北省,武汉市,武昌区
B001B1CWUU,湖北健康职业培训学校,科教文化服务;学校;职业技术学校|科教文化服务;培训机构;培训机构,141206|141400,,八一路115号,114.345523,30.537471,,湖北省,武汉市,武昌区
B0FFJOZ84U,育红小学,科教文化服务;学校;小学,141203,,和平大道818号(赵家墩车站旁边),114.327444,30.583164,027-86811058;027-86611232,湖北省,武汉市,武昌区
B0FFJOZ84U,育红小学,科教文化服务;学校;小学,141203,,和平大道818号(赵家墩车站旁边),114.327444,30.583164,027-86811058;027-86611232,湖北省,武汉市,武昌区
B0G1FZL5OX,武汉大学工学部一教(建设中),科教文化服务;学校;高等院校,141201,,东湖南路8号,114.362245,30.543903,,湖北省,武汉市,武昌区
B0FFG61GM5,湖北省武汉大学人民医院幼儿园,科教文化服务;学校;幼儿园,141204,,黄鹤楼街办事处紫阳路238号,114.298394,30.53812,,湖北省,武汉市,武昌区
B0FFGAOWGC,武汉市水岸星城思桥国际幼儿园,科教文化服务;学校;幼儿园,141204,,团结大道旺家装饰建材城东侧约50米,114.343497,30.578052,027-88916838,湖北省,武汉市,武昌区
B0FFHS0S03,武汉市武昌区阳光花幼儿园,科教文化服务;学校;幼儿园,141204,,新鑫佳苑内,114.301264,30.50797,027-88130616,湖北省,武汉市,武昌区
B001B1DIDS,武汉大学力学实验教学中心,科教文化服务;学校;高等院校,141201,,八一路299号武汉大学工学部内,114.360471,30.544023,,湖北省,武汉市,武昌区
B0FFGAOOH7,武汉市石洞街学校,科教文化服务;学校;学校,141200,,环山绿道三三零三工厂,114.279556,30.340621,,湖北省,武汉市,武昌区
B001B16NKI,武汉理工大学余家头校区余家头校区交通学院海洋工程系(东门),科教文化服务;学校;高等院校,141201,,和平大道1178号武汉理工大学余家头校区,114.357908,30.607964,,湖北省,武汉市,武昌区
B001B16MKL,武汉理工大学余家头校区幼儿园,科教文化服务;学校;幼儿园,141204,,杨园街办事处武汉理工大学(和平大道1178号),114.35291,30.605517,,湖北省,武汉市,武昌区
B001B0IIWC,柴林小学,科教文化服务;学校;小学,141203,,杨园街柴林头东区34号,114.348877,30.599784,027-86814147,湖北省,武汉市,武昌区
B0HUUSQRQ7,知音老年大学,科教文化服务;学校;成人教育,141205,,湖北知音传媒有限公司,114.369543,30.572567,,湖北省,武汉市,武昌区
B0FFJXZXNU,武汉小学珞珈山分校,科教文化服务;学校;小学,141203,,武珞路586号,114.339934,30.527306,,湖北省,武汉市,武昌区
B0FFJXRPOV,电子信息学院东科技楼,科教文化服务;学校;学校,141200,,桂园一路,114.359396,30.537807,,湖北省,武汉市,武昌区
B0HD2CD6SJ,武汉盛思教育培训学院,科教文化服务;学校;成人教育,141205,,武珞路628号B座21层7号,114.341883,30.529636,,湖北省,武汉市,武昌区
B0FFG6CLIG,武汉市武昌区特长学校,科教文化服务;学校;学校,141200,,建安街171附10号,114.316655,30.506818,15337268267,湖北省,武汉市,武昌区
B0FFG09MVC,武汉大学梅园,科教文化服务;学校;学校,141200,,珞珈山八一路483号武汉大学内(武汉大学内),114.36476,30.535718,027-68752665,湖北省,武汉市,武昌区
B0G3PMTE9N,武汉大学工学部一教工学部1教,科教文化服务;学校;高等院校,141201,,东湖南路8号,114.362241,30.543881,,湖北省,武汉市,武昌区
B0FFGPTJHJ,武汉市武昌区实验幼儿园梅苑校区,科教文化服务;学校;幼儿园,141204,,紫阳东路81号附近,114.324466,30.529399,,湖北省,武汉市,武昌区
B0FFFGLWOZ,武汉市武昌区培智中心学校,科教文化服务;学校;小学,141203,,积玉桥街办事处和平大道前进路湖滨街118号,114.314147,30.563846,,湖北省,武汉市,武昌区
B0FFGCE9YK,金色摇篮双语幼儿园(江盛路),科教文化服务;学校;幼儿园,141204,,江盛路15号,114.292069,30.509484,027-88010709;13971167581,湖北省,武汉市,武昌区
B0FFJ1EMPJ,金牛子四美苑幼儿园,科教文化服务;学校;幼儿园,141204,,杨园街道四美塘路四美塘65号四美苑小区,114.340301,30.601126,13607193737,湖北省,武汉市,武昌区
B001B1CXHO,湖北中医药大学护理学院,科教文化服务;学校;高等院校,141201,,粮道街办事处昙华林188号,114.314517,30.550028,,湖北省,武汉市,武昌区
B001B1DIAS,武汉大学公共管理硕士教育中心,科教文化服务;学校;高等院校,141201,,八一路299号珞珈山,114.367754,30.537794,,湖北省,武汉市,武昌区
B001B08G1R,武昌区安馨幼儿园,科教文化服务;学校;幼儿园,141204,,铁机路80号,114.34902,30.60634,027-88606030,湖北省,武汉市,武昌区
B0FFFLJ5RS,武汉理工大学余区报账大厅,科教文化服务;学校;高等院校|生活服务;生活服务场所;生活服务场所,141201|070000,,杨园街办事处杨园街和平大道1178号,114.356663,30.607989,,湖北省,武汉市,武昌区
B0FFHJ3Z2Y,武汉理工大学余家头校区保卫办公室,科教文化服务;学校;高等院校,141201,,交通一路武汉理工大学(余家头校区),114.355915,30.608447,,湖北省,武汉市,武昌区
B0FFFLIUZW,武汉理工大学航运学院船艺训练室,科教文化服务;学校;高等院校,141201,,和平大道1178号武汉理工大学余家头校区,114.357366,30.607774,,湖北省,武汉市,武昌区
B001B1IJ0G,武汉大学关心下一代工作委员会,科教文化服务;学校;高等院校,141201,,八一路299号武汉大学,114.366389,30.531827,,湖北省,武汉市,武昌区
B0HB9HDLOT,艾儿思美式幼儿园(沙湖西雅图园),科教文化服务;学校;幼儿园,141204,,秦园东路水岸星城2A,114.346674,30.576072,,湖北省,武汉市,武昌区
B0FFGPYWMM,华中师范大学成人高等教育教学点,科教文化服务;学校;成人教育,141205,,杨园街115号附近,114.350923,30.609894,,湖北省,武汉市,武昌区
B0FFG77GSL,东湖英华国际幼教中心,科教文化服务;学校;幼儿园,141204,,水果湖街办事处中北路东湖1号会所旁,114.357097,30.561336,027-87128798;15871416356,湖北省,武汉市,武昌区
B0FFHM4KL7,武汉大学第一临床学院病案管理科,科教文化服务;学校;高等院校,141201,,张之洞路9(武汉大学第一临床学院),114.294043,30.535808,,湖北省,武汉市,武昌区
B0FFJ2Z0XI,武汉市武昌区复兴路小学,科教文化服务;学校;小学,141203,,紫阳街街道复兴路水陆街42号,114.299532,30.53129,,湖北省,武汉市,武昌区
B0FFK71AA2,武汉大学工学部七教学楼,科教文化服务;学校;学校,141200,,珞珈山街街道珞珈山街道八一路299号,114.363283,30.542496,,湖北省,武汉市,武昌区
B0FFH2IOWU,湖北中医药大学(昙华林校区)-聚杏园,科教文化服务;学校;高等院校,141201,,昙华林188号附近,114.312925,30.55078,,湖北省,武汉市,武昌区
B0FFK8FFMB,格林美德国际幼儿园,科教文化服务;学校;幼儿园,141204,,,114.309182,30.562585,,湖北省,武汉市,武昌区
B001B0I6OD,江南庭苑幼儿园,科教文化服务;学校;幼儿园,141204,,丁字桥南路234号,114.326635,30.512015,027-88415052,湖北省,武汉市,武昌区
B0FFKW5CAT,心荷艺术幼儿园,科教文化服务;学校;幼儿园,141204,,徐家棚街街道友谊大道318号沙湖金港苑4栋,114.327795,30.571175,18086034991,湖北省,武汉市,武昌区
B0FFGAP3R8,奇贝尔幼儿园,科教文化服务;学校;幼儿园,141204,,黄鹤楼街办事处彭刘杨西路汉飞逛逛街3号汉飞又一城3号楼b座,114.294046,30.540807,18995608486,湖北省,武汉市,武昌区
B0FFGAP8FO,睿思幼儿园,科教文化服务;学校;幼儿园,141204,,黄鹤楼街办事处彭刘杨西路临江大道7号,114.292413,30.54002,18696189257,湖北省,武汉市,武昌区
B001B08LE0,武汉开放大学武昌区分校,科教文化服务;学校;成人教育,141205,,复兴路26号,114.301801,30.529843,027-88429990,湖北省,武汉市,武昌区
B001B1CBUH,冠科晒湖幼儿园,科教文化服务;学校;幼儿园,141204,,中南路街办事处雄楚大道66号,114.32264,30.518987,027-88029881,湖北省,武汉市,武昌区
B0FFL6YNRW,艺帆幼儿园,科教文化服务;学校;幼儿园,141204,,中山路309附6号,114.318883,30.54519,027-87369789,湖北省,武汉市,武昌区
B0FFGAMECA,武汉大学生命科学学院实验动物中心,科教文化服务;学校;高等院校|科教文化服务;科研机构;科研机构,141201|141300,,八一路299号(武汉大学),114.362739,30.532853,,湖北省,武汉市,武昌区
B0FFGHAXMA,小叮当幼儿园,科教文化服务;学校;幼儿园,141204,,青鱼嘴金沙豪庭a栋2楼,114.349857,30.565561,,湖北省,武汉市,武昌区
B0FFL4ZIHZ,武昌区博实育苗幼儿园,科教文化服务;学校;幼儿园,141204,,民主路491附近,114.316555,30.543539,19972156687,湖北省,武汉市,武昌区
B0FFJNK6JP,康贝儿幼儿园,科教文化服务;学校;幼儿园,141204,,中华路街街道青龙巷71一77号农贸市场,114.302085,30.547433,,湖北省,武汉市,武昌区
B0FFL10KTQ,蒲天国际幼儿园,科教文化服务;学校;幼儿园,141204,,水果湖街街道徐东岳家嘴东湖春树里小区四栋二单元一楼,114.363297,30.574948,,湖北省,武汉市,武昌区
B0FFFF2SA2,武汉大学水利水电工程实验教学中心,科教文化服务;学校;高等院校,141201,,珞珈山街办事处东湖南路8号武汉大学水利水电学院,114.362397,30.54261,,湖北省,武汉市,武昌区
B0FFK2XNGZ,三宝幼儿园,科教文化服务;学校;幼儿园,141204,,洪山路56号302室111,114.34724,30.544842,027-87232427,湖北省,武汉市,武昌区
B0FFHRPRHE,武昌区社区教育学院中华路街分校,科教文化服务;学校;成人教育,141205,,中华路街街道中华路街办事处户部巷党员服务中心三楼,114.296165,30.547073,,湖北省,武汉市,武昌区
B0G3YRVDU2,武汉理工大学余家头校区管理委员会,科教文化服务;学校;高等院校,141201,,,114.356468,30.608382,,湖北省,武汉市,武昌区
B0FFJISDD9,向阳佳苑幼儿园,科教文化服务;学校;幼儿园,141204,,丁字桥路向阳佳苑B区4栋,114.330764,30.523089,18802733830,湖北省,武汉市,武昌区
B0FFHQS3I4,武汉中央文化区・南希和玛莎的幼儿园,科教文化服务;学校;幼儿园,141204,,中北路149号,114.342757,30.557589,027-87831117;18771019795,湖北省,武汉市,武昌区
B0H6D43LN6,御江名苑幼儿园,科教文化服务;学校;幼儿园,141204,,夹套河路金鑫御江名苑,114.295276,30.508818,,湖北省,武汉市,武昌区
B0FFK0858Y,武汉大学电气与自动化学院自动化系,科教文化服务;学校;高等院校,141201,,武汉大学工学部3教,114.363132,30.543844,,湖北省,武汉市,武昌区
B001B1BXRX,科生航空,科教文化服务;学校;高等院校|生活服务;售票处;飞机票代售点,141201|070301,,中科院水生所,114.357834,30.545089,027-87872188;027-87877066,湖北省,武汉市,武昌区
B0FFGJ8WFE,中国农业银行武汉培训学院,科教文化服务;学校;学校,141200,,中北路186号,114.355762,30.568523,,湖北省,武汉市,武昌区
B001B1CXOD,湖北中医药大学针灸骨伤学院,科教文化服务;学校;高等院校,141201,,昙华林188湖北中医药大学,114.3144,30.550071,027-68889401,湖北省,武汉市,武昌区
B0FFFFJPBE,武汉市水上运动学校,科教文化服务;学校;职业技术学校,141206,,,114.358556,30.550713,,湖北省,武汉市,武昌区
B001B09JA7,武汉市武昌区社区教育学院,科教文化服务;学校;成人教育,141205,,紫阳街办事处复兴路26号,114.30155,30.529952,027-88072863,湖北省,武汉市,武昌区
B001B1DI44,武汉大学-院士楼,科教文化服务;学校;学校,141200,,八一路395号附近,114.367962,30.530433,,湖北省,武汉市,武昌区
B0HDRCUQRY,小弗米(武汉)国际幼儿中心(复地校区),科教文化服务;学校;幼儿园,141204,,中北路118号复地东湖国际七期第13幢-2层商1114号,114.35457,30.558865,027-87712962,湖北省,武汉市,武昌区
B0FFGBQV9J,零点教育幼儿园,科教文化服务;学校;幼儿园,141204,,白沙洲大道烽火村城南新居特1号,114.299568,30.506378,,湖北省,武汉市,武昌区
B0FFJO5OV2,武昌区中山路小学(北校区),科教文化服务;学校;小学,141203,,千家街107,114.316454,30.534842,027-88326269,湖北省,武汉市,武昌区
B0FFMCNLPY,武汉理工大学余家头校区第二教学楼,科教文化服务;学校;学校,141200,,和平大道1178号武汉理工大学余家头校区,114.355696,30.609358,,湖北省,武汉市,武昌区
B0FFGCDRJD,武汉理工大学网络继续教育学院(余区),科教文化服务;学校;成人教育,141205,,交通一路与水运湖路交叉口东100米,114.356347,30.609647,,湖北省,武汉市,武昌区
B001B1C3PH,迈开尔学校,科教文化服务;培训机构;培训机构|科教文化服务;学校;学校,141400|141200,,雅安街169-171号,114.317067,30.510029,15327202392,湖北省,武汉市,武昌区
B0FFLGAAGK,海贝幼教,科教文化服务;学校;幼儿园,141204,,张之洞路南国・首义汇1层,114.303166,30.536623,,湖北省,武汉市,武昌区
B001B16P2V,新乐思幼儿园(雅安街),科教文化服务;学校;幼儿园,141204,,瑞安街224附23号,114.322402,30.510591,,湖北省,武汉市,武昌区
B001B1CWL7,武昌区余家头小学杨家路校区,科教文化服务;学校;小学,141203,,欧景苑特1号,114.3563,30.617084,,湖北省,武汉市,武昌区
B0FFG7D78Z,武汉大学机械工程实验教学中心车削加工部,科教文化服务;学校;高等院校,141201,,弘毅大道武汉大学文理学部,114.362168,30.541563,,湖北省,武汉市,武昌区
B001B16Z59,学尔森学院武汉分院,科教文化服务;学校;高等院校,141201,,首义路街办事处武珞路114号附14号,114.314044,30.54009,,湖北省,武汉市,武昌区
B0HB7X2XNQ,美霖国际幼儿园(武昌园),科教文化服务;学校;幼儿园,141204,,安邦路家盛时代城市生活广场(中北店)南侧约60米,114.350306,30.561608,18162594313,湖北省,武汉市,武昌区
B0FFGCB82Q,武汉大学机械工程实验教学中心现代加工部,科教文化服务;学校;高等院校,141201,,弘毅大道武汉大学(文理学部),114.362118,30.541051,,湖北省,武汉市,武昌区
B0FFKGX77E,湖北新经济职业技术学校,科教文化服务;学校;职业技术学校,141206,,中南路街街道武珞路中南国际D座D2栋,114.330289,30.533567,,湖北省,武汉市,武昌区
B0FFIJTZS6,武汉新航道学校中南16楼校区,科教文化服务;学校;学校,141200,,中南路12号建设大厦A座16层,114.33377,30.537518,027-87812830;027-87816992,湖北省,武汉市,武昌区
B0FFJ7ZD6U,武汉市武昌区中科幼儿园,科教文化服务;学校;幼儿园,141204,,科技小路星星新城西侧约100米,114.353192,30.53598,,湖北省,武汉市,武昌区
B0FFF41BVO,苗苗幼儿园(武昌区水陆街社区卫生服务站南),科教文化服务;学校;幼儿园,141204,,紫阳街办事处紫阳路水陆小区16栋,114.298565,30.529745,027-88065067,湖北省,武汉市,武昌区
B001B1C7C5,武昌区康乐幼儿园,科教文化服务;学校;幼儿园,141204,,南湖街恒安路262号南湖花园城康乐苑武昌区教育局,114.315861,30.514691,027-88011480,湖北省,武汉市,武昌区
B0FFJ2WI6H,武昌老年大学(水果湖街分校),科教文化服务;学校;成人教育,141205,,黄鹂路东亭小区,114.359355,30.56607,,湖北省,武汉市,武昌区
B001B1ANO4,湖北省城市建设继续教育学院,科教文化服务;学校;成人教育,141205,,中南路,114.333631,30.537597,,湖北省,武汉市,武昌区
B0FFLOI4Z3,中国科学院武汉岩土力学研究所研发大楼,科教文化服务;学校;学校,141200,,水果湖街道小洪山2号,114.348835,30.536927,027-87199251,湖北省,武汉市,武昌区
B001B1C408,长城嘉苑中英文幼儿园,科教文化服务;学校;幼儿园,141204,,徐家棚街办事处徐东路团结大道长城嘉苑,114.347725,30.583265,027-86818822;027-86819922,湖北省,武汉市,武昌区
B0FFG7FE36,希望幼儿园(水果湖街东亭社区卫生服务站西南),科教文化服务;学校;幼儿园,141204,,水果湖街办事处东亭小区17栋旁边,114.359437,30.565728,,湖北省,武汉市,武昌区
B0FFHZRB4W,武汉市水岸星城伟才幼儿园,科教文化服务;学校;幼儿园,141204,,秦园路157号,114.349414,30.577882,027-87126388,湖北省,武汉市,武昌区
B0FFFDBEVT,湖北省高等教育自学考试学习服务中心,科教文化服务;学校;成人教育,141205,,武珞路114号中南财经政法大学电教楼,114.312493,30.5359,,湖北省,武汉市,武昌区
B0G0CUZ5S9,武昌区社区教育学院杨园街分校,科教文化服务;学校;成人教育,141205,,四美塘路与和平大道交叉口西北约140米,114.339718,30.598391,,湖北省,武汉市,武昌区
B0FFF5MPHA,武昌区中山路小学紫都二分校,科教文化服务;学校;小学,141203,,新武金堤路与杨泗港快速通道交叉口西北方向120米,114.276454,30.502455,,湖北省,武汉市,武昌区
B0FFJPU7LN,武汉理工大学余家头校区东配楼,科教文化服务;学校;学校,141200,,交通三路与青年园北路交叉口东北50米,114.358014,30.609298,,湖北省,武汉市,武昌区
B0FFFLIUB5,武汉理工大学离退休工作处余区办公室,科教文化服务;学校;高等院校,141201,,交通四路武汉理工大学(余家头校区),114.35543,30.605389,,湖北省,武汉市,武昌区
B0FFF3424B,武汉理工大学余家头校区工程训练中心余区分部,科教文化服务;学校;高等院校,141201,,和平大道1178号武汉理工大学余家头校区铁机路附近,114.354626,30.603288,,湖北省,武汉市,武昌区
B001B16ZO7,对外经济贸易大学自学考试武汉学习服务中心,科教文化服务;学校;成人教育,141205,,武珞路114号中南财经政法大学首义校区继续教育学院附近,114.313076,30.534536,,湖北省,武汉市,武昌区
B001B16SG3,武汉理工大学余家头校区余家头校区理学院,科教文化服务;学校;高等院校,141201,,和平大道1178号武汉理工大学余家头校区,114.355798,30.609168,,湖北省,武汉市,武昌区
B0FFFLIY0W,武汉理工大学余家头校区交通学院科学计算与工程仿真中心,科教文化服务;学校;高等院校,141201,,和平大道1178号武汉理工大学余家头校区学子路附近,114.359415,30.606831,,湖北省,武汉市,武昌区
B0FFJ2WT3B,武昌实验中学初中部(铁四院校区),科教文化服务;学校;中学,141202,,施家墩路与铁四院路交叉路口往西南约150米,114.344457,30.604548,027-51155543,湖北省,武汉市,武昌区
B0H6D43ST1,武汉市武昌区四美一幼幼儿园,科教文化服务;学校;幼儿园,141204,,四美塘路四美塘65号四美苑小区,114.340102,30.601112,,湖北省,武汉市,武昌区
B001B1GLMG,中南路街武锅社区老年大学,科教文化服务;学校;成人教育,141205,,武锅医院旁,114.336793,30.530185,,湖北省,武汉市,武昌区
B001B0JV6N,武汉市武昌区华大凯乐幼儿园(凯乐分园),科教文化服务;学校;幼儿园,141204,,舒家街凯乐花园西北侧,114.322586,30.54121,027-87835586;18171411107,湖北省,武汉市,武昌区
B001B1DIBG,武汉大学教育技术与教学服务中心,科教文化服务;学校;高等院校,141201,,珞珈山街办事处八一路299号,114.361053,30.536275,,湖北省,武汉市,武昌区
B0G32NFSTY,武汉理工大学余家头校区第五教学楼,科教文化服务;学校;学校,141200,,和平街办事处友谊大道武汉理工大学余家头校区武汉理工大学余家头校区,114.357558,30.602579,,湖北省,武汉市,武昌区
B0FFJ5HBR3,湖北省武昌实验中学沙湖学校(东区),科教文化服务;学校;中学,141202,,中北路与秦园东路交叉口西北150米,114.352251,30.574453,,湖北省,武汉市,武昌区
B0FFFOGJCI,武汉理工大学余家头校区余家头校区学生创业实践基地,科教文化服务;学校;学校,141200,,和平大道1178号武汉理工大学余家头校区,114.357682,30.607889,,湖北省,武汉市,武昌区
B0FFF5LVR3,武汉理工大学余家头校区余家头校区能源与动力工程学院可靠性工程研究所,科教文化服务;学校;高等院校,141201,,和平大道1178号武汉理工大学余家头校区,114.356329,30.608947,,湖北省,武汉市,武昌区
B001B1CXQR,湖北省实验幼儿园(凯旋名邸分园),科教文化服务;学校;幼儿园,141204,,静安路7号,114.317753,30.522505,,湖北省,武汉市,武昌区
B0FFLGBKRE,WUCHANG QU ZHONGSHAN LU XIAOXUE,科教文化服务;学校;小学,141203,,张之洞路,114.314482,30.532787,,湖北省,武汉市,武昌区
B0FFHBDE2R,武汉大学经济与管理学院EDP中心新经济高级人才孵化部,科教文化服务;学校;学校,141200,,东区34号湖北省科技创业大厦A座9楼,114.355393,30.536236,,湖北省,武汉市,武昌区
B0FFFLJRIU,中国自然辩证法研究会科技文化专业委员会,政府机构及社会团体;社会团体;社会团体相关|科教文化服务;学校;学校,130400|141200,,和平大道1178号武汉理工大学余家头校区,114.356658,30.608019,,湖北省,武汉市,武昌区
B0G0S71LUR,武昌区社区教育学院黄鹅楼街分校教学点,科教文化服务;学校;成人教育,141205,,,114.303218,30.542314,,湖北省,武汉市,武昌区
B001B1BPIS,旺斯达国际幼儿园(静安路),科教文化服务;学校;幼儿园,141204,,静安路7号凯旋名邸小区,114.317869,30.522545,,湖北省,武汉市,武昌区
B001B1GLMI,武汉大学劳动服务公司培训楼,科教文化服务;学校;学校,141200,,八一路299号武汉大学,114.367668,30.531637,,湖北省,武汉市,武昌区
B001B1CX77,武昌区金港幼儿园,科教文化服务;学校;幼儿园,141204,,武昌区友谊大道318号沙湖金港苑,114.327893,30.571485,,湖北省,武汉市,武昌区
B001B1CX25,国立武汉大学政治与公共管理学院公共管理系,科教文化服务;学校;高等院校,141201,,八一路299号珞珈山,114.367762,30.538028,027-68755297,湖北省,武汉市,武昌区
B001B1DIAA,武汉大学高等教育学院,科教文化服务;学校;高等院校,141201,,八一路299号武汉大学教育科学学院附近,114.360237,30.542871,,湖北省,武汉市,武昌区
B001B1DI62,武汉大学基础医学院学生发展指导中心,科教文化服务;学校;高等院校,141201,,东湖路127(武汉大学医学部),114.355738,30.556016,,湖北省,武汉市,武昌区
B001B1DIA1,武汉大学主考专业全日制自考本科助学班,科教文化服务;学校;高等院校,141201,,八一路299号珞珈山,114.371433,30.538792,,湖北省,武汉市,武昌区
B001B16LUR,湖北大学幼儿园,科教文化服务;学校;幼儿园,141204,,友谊大道368号湖北大学内,114.334324,30.57631,027-88662710,湖北省,武汉市,武昌区
B001B15Y6X,爱迪国际融侨华府儿童教育中心,科教文化服务;学校;幼儿园|科教文化服务;培训机构;培训机构,141204|141400,,积玉桥街街道武汉至励上和文化发展有限公司和平大道666号,114.317319,30.567873,13995656681;027-88706799,湖北省,武汉市,武昌区
B001B0JHD7,武汉市武昌区艺萌附属幼儿园,科教文化服务;学校;幼儿园,141204,,胭脂路49附49号,114.30859,30.549915,027-88918630,湖北省,武汉市,武昌区
B001B1E6W6,武汉大学-早期建筑文学院,科教文化服务;学校;高等院校,141201,,珞珈山街街道八一路299号(本科生院对面),114.364897,30.540044,,湖北省,武汉市,武昌区
B0FFI6YBIE,东湖生态旅游风景区渔光村特1号武汉纺织大学东湖校区(东湖风景区梨园社区居委会大门旁),科教文化服务;学校;高等院校,141201,,华电小路与西苑路交叉口东50米,114.371539,30.578875,,湖北省,武汉市,武昌区
B001B1BX4K,武汉大学早期建筑工学院,科教文化服务;学校;高等院校,141201,,珞珈山16号武汉大学,114.366488,30.537508,,湖北省,武汉市,武昌区
B001B0IYKI,武汉大学工学部10教学楼,科教文化服务;学校;学校,141200,,八一路299号武汉大学工学部内,114.360843,30.544172,,湖北省,武汉市,武昌区
B001B1BWQ1,武汉大学体育部,科教文化服务;学校;高等院校,141201,,珞珈山16号武汉大学,114.361819,30.538283,,湖北省,武汉市,武昌区
B0FFL2XW7G,武汉理工大学余家头校区北4栋,科教文化服务;学校;高等院校,141201,,,114.354375,30.607195,,湖北省,武汉市,武昌区
B001B1DIEK,武汉大学机械工程实验教学中心,科教文化服务;学校;高等院校,141201,,珞珈山16号武汉大学校园南路附近,114.361915,30.541599,,湖北省,武汉市,武昌区
B001B1CX8D,金宝贝双语幼儿园,科教文化服务;学校;幼儿园,141204,,白沙洲街办事处武泰闸涂家沟特1号,114.302957,30.518438,13871109698;027-51482159,湖北省,武汉市,武昌区
B001B18YG6,湖北大学-商学院,科教文化服务;学校;高等院校,141201,,友谊大道368号,114.330769,30.576729,,湖北省,武汉市,武昌区
B001B0653C,湖北大学附属中学,科教文化服务;学校;中学,141202,,团结路8,114.336727,30.588362,027-86811401,湖北省,武汉市,武昌区
B001B1706Q,武昌区教育局党校,科教文化服务;学校;学校,141200,,首义新村159号,114.308287,30.538754,,湖北省,武汉市,武昌区
B0FFG56PII,武汉大学医学部锅炉房,科教文化服务;学校;学校内部设施|生活服务;生活服务场所;生活服务场所,141207|070000,,东湖路115号武汉大学医学部,114.354489,30.554923,,湖北省,武汉市,武昌区
B001B0BDFQ,安琪儿幼儿园,科教文化服务;学校;幼儿园,141204,,黄鹤楼街办事处九龙井小区三栋一层,114.303918,30.542539,027-88323296,湖北省,武汉市,武昌区
B001B0IFTD,武汉商院继教院武汉市燃气热力学校教学站,科教文化服务;学校;成人教育,141205,,团结路35号,114.343796,30.583111,027-86811107,湖北省,武汉市,武昌区
B001B16M1P,湖北省省直机关第二幼儿园(装修中),科教文化服务;学校;幼儿园,141204,,水果湖街街道东湖路14号省直机关,114.341255,30.549974,027-87235855;027-87238136,湖北省,武汉市,武昌区
B001B1BXFV,武汉理工大学余家头校区大学生活动中心,科教文化服务;学校;高等院校,141201,,和平大道1178号武汉理工大学余家头校区,114.356392,30.605455,,湖北省,武汉市,武昌区
B0FFI6AVN5,武汉大学水电服务大厅,科教文化服务;学校;学校内部设施|生活服务;生活服务场所;生活服务场所,141207|070000,,桂园一路武汉大学(文理学部),114.359281,30.537079,,湖北省,武汉市,武昌区
B001B1BWHF,武汉大学-教2楼,科教文化服务;学校;学校,141200,,珞珈山16号武汉大学桂园三路附近,114.361731,30.538862,,湖北省,武汉市,武昌区
B001B1CX7Z,武汉大学艺术学系排练厅,科教文化服务;学校;高等院校,141201,,珞珈山16号武汉大学,114.377053,30.535425,,湖北省,武汉市,武昌区
B001B1DIDV,武汉大学科技查新工作站,科教文化服务;学校;高等院校,141201,,八一路299号武汉大学,114.361475,30.543851,,湖北省,武汉市,武昌区
B001B16Y0C,武汉市武昌区复兴路小学(水陆街校区),科教文化服务;学校;小学,141203,,水陆街47号,114.299491,30.531263,,湖北省,武汉市,武昌区
B001B1BXRM,武汉大学网络教育学院远程教育技术中心,科教文化服务;学校;高等院校|生活服务;生活服务场所;生活服务场所,141201|070000,,八一路299号武汉大学工学部内,114.360902,30.544173,027-68772151;027-68775422,湖北省,武汉市,武昌区
B001B1BX7G,武汉大学土木建筑工程学院结构楼,科教文化服务;学校;学校,141200,,八一路299号武汉大学工学部内,114.361294,30.544718,,湖北省,武汉市,武昌区
B0FFG411CE,武汉大学-园林温室,科教文化服务;学校;学校内部设施,141207,,珞珈山16号武汉大学,114.370873,30.540641,,湖北省,武汉市,武昌区
B0FFFXYQGA,武汉大学大学生创新创业实践中心,科教文化服务;学校;学校内部设施,141207,,弘毅大道武汉大学文理学部,114.361691,30.541631,,湖北省,武汉市,武昌区
B0HUN7A7L8,武汉音乐学院主楼,科教文化服务;学校;学校,141200,,解放路255号,114.296916,30.53787,,湖北省,武汉市,武昌区
B0G3SCX3QD,武汉大学医学部6号楼,科教文化服务;学校;学校,141200,,,114.355382,30.555569,,湖北省,武汉市,武昌区
B0G3SCWPWB,武汉大学医学部7号楼,科教文化服务;学校;学校,141200,,,114.354844,30.555553,,湖北省,武汉市,武昌区
B0G3NUQL8N,武汉大学医学部11教学楼,科教文化服务;学校;学校,141200,,东湖路115号武汉大学医学部,114.356701,30.554877,,湖北省,武汉市,武昌区
B0G37A81PX,湖北大学武昌校区物理与电子科学学院,科教文化服务;学校;高等院校,141201,,学院路11号,114.331657,30.577064,,湖北省,武汉市,武昌区
B0G2UC4QMZ,湖北大学教2号楼,科教文化服务;学校;学校,141200,,湖北大学内,114.331641,30.578549,,湖北省,武汉市,武昌区
B0G2UC4QMW,湖北大学武昌校区教5号楼,科教文化服务;学校;学校,141200,,,114.330939,30.577916,,湖北省,武汉市,武昌区
B0G2SUL5RO,武汉大学医学部8栋,科教文化服务;学校;学校,141200,,,114.351337,30.553873,,湖北省,武汉市,武昌区
B0FFMGV642,湖北大学武昌校区教1号楼,科教文化服务;学校;学校,141200,,友谊大道368湖北大学,114.332541,30.579213,,湖北省,武汉市,武昌区
B0FFLPD3YF,武汉文都辅导学院,科教文化服务;学校;高等院校,141201,,珞喻路524号(口味堂旁),114.329498,30.576504,18271990679,湖北省,武汉市,武昌区
B0FFLM7RMC,湖北大学招生就业处,科教文化服务;学校;高等院校,141201,,逸夫楼人文图书馆,114.330881,30.575495,,湖北省,武汉市,武昌区
B0FFLFR4M6,武汉中学招生办公室,科教文化服务;学校;高等院校|生活服务;生活服务场所;生活服务场所,141201|070000,,粮道街武汉中学,114.310989,30.547501,,湖北省,武汉市,武昌区
B0FFLDHOBE,湖北大学(武昌校区)文都考研学院,科教文化服务;学校;高等院校,141201,,友谊大道356号,114.329498,30.576504,,湖北省,武汉市,武昌区
B0FFK3JR6I,武汉中学贤琮楼,科教文化服务;学校;学校,141200,,粮道街273号附近,114.312976,30.547138,,湖北省,武汉市,武昌区
B0FFK32WJ6,湖北大学-楚才学院,科教文化服务;学校;高等院校,141201,,徐家棚街办事处友谊大道368号湖北大学田家炳楼,114.331594,30.576438,,湖北省,武汉市,武昌区
B0FFK0F6FR,湖北大学武昌校区计算机与信息工程学院,科教文化服务;学校;高等院校,141201,,学院路11号,114.332217,30.577853,,湖北省,武汉市,武昌区
B0FFHQS723,武汉大学医学部6号教学楼,科教文化服务;学校;学校,141200,,东湖路127(武汉大学医学部),114.356797,30.555242,,湖北省,武汉市,武昌区
B0FFHQS5VI,武汉大学医学部5号教学楼,科教文化服务;学校;学校,141200,,武汉大学医学部求索路,114.356422,30.555005,,湖北省,武汉市,武昌区
B0FFHQS5TT,武汉大学医学部1号教学楼,科教文化服务;学校;学校,141200,,东湖路127武汉大学医学部内,114.355799,30.55405,,湖北省,武汉市,武昌区
B0FFHQS2K9,武汉大学医学部8号教学楼,科教文化服务;学校;学校,141200,,东湖路127武汉大学医学部内,114.354787,30.554381,,湖北省,武汉市,武昌区
B0FFHQRZ27,武汉大学医学部7号教学楼,科教文化服务;学校;学校,141200,,东湖路127武汉大学医学部内,114.356754,30.555512,,湖北省,武汉市,武昌区
B0FFHQRYPR,武汉大学医学部3号教学楼,科教文化服务;学校;学校,141200,,东湖路127武汉大学医学部内,114.355537,30.553214,,湖北省,武汉市,武昌区
B0FFHO8B5D,湖北大学(武昌校区)-驾校咨询点,科教文化服务;学校;高等院校,141201,,,114.335904,30.582115,,湖北省,武汉市,武昌区
B0FFHLA13N,湖北大学综合实训中心大楼,科教文化服务;学校;学校,141200,,友谊大道,114.334393,30.58028,,湖北省,武汉市,武昌区
B0FFHGOBAR,中南财经政法大学首义校区39,科教文化服务;学校;学校,141200,,武珞路114-4号附近,114.313701,30.536035,,湖北省,武汉市,武昌区
B0FFHGLRZQ,中南财经政法大学首义校区33,科教文化服务;学校;学校,141200,,,114.313668,30.535752,,湖北省,武汉市,武昌区
B0FFHGJTV0,中南财经政法大学首义校区29,科教文化服务;学校;学校,141200,,,114.313448,30.535598,,湖北省,武汉市,武昌区
B0FFHGJSAL,中南财经政法大学首义校区36,科教文化服务;学校;学校,141200,,张之洞路北200米,114.313542,30.534639,,湖北省,武汉市,武昌区
B0FFHGH8GV,中南财经政法大学首义校区41,科教文化服务;学校;学校,141200,,首义四巷附近,114.312051,30.537603,,湖北省,武汉市,武昌区
B0FFHGEXOW,中南财经政法大学首义校区4,科教文化服务;学校;学校,141200,,武珞路辅路南200米,114.312478,30.538691,,湖北省,武汉市,武昌区
B0FFHGETV2,中南财经政法大学首义校区40,科教文化服务;学校;学校,141200,,首义四巷附近,114.312119,30.537895,,湖北省,武汉市,武昌区
B0FFHFV1GY,武汉音乐学院解放路门,科教文化服务;学校;学校,141200,,解放路225号武汉音乐学院,114.29751,30.53781,,湖北省,武汉市,武昌区
B0FFHFJF2R,武汉音乐学院解放路校区6号楼,科教文化服务;学校;学校,141200,,解放路255武汉音乐学院解放路校区,114.296122,30.53712,,湖北省,武汉市,武昌区
B0FFHEQJAS,武汉大学计算中心4区,科教文化服务;学校;高等院校,141201,,武汉大学医学部,114.356534,30.553402,,湖北省,武汉市,武昌区
B0FFHC3GHS,湖北大学武昌校区学术交流中心商务部,科教文化服务;学校;高等院校,141201,,国师路与琴园路交叉口西南150米,114.330024,30.575416,,湖北省,武汉市,武昌区
B0FFGZMWRO,武汉大学中南医院基础医学实验教学中心,科教文化服务;学校;高等院校,141201,,水果湖街街道,114.355537,30.553214,,湖北省,武汉市,武昌区
B0FFGPTJB0,湖北大学乐创园B区,科教文化服务;学校;高等院校,141201,,宝积路与琴园路交叉口西100米,114.331429,30.57556,,湖北省,武汉市,武昌区
B0FFGPSPE1,湖北大学留学管理办公室,科教文化服务;学校;高等院校,141201,,国师路与学府路交叉口西50米,114.33259,30.577998,,湖北省,武汉市,武昌区
B0FFGPSPDV,湖北大学信息化建设与管理处,科教文化服务;学校;高等院校,141201,,徐家棚街办事处友谊大道368号,114.332227,30.577866,,湖北省,武汉市,武昌区
B0FFGDO34C,武汉大学医学部西实验楼,科教文化服务;学校;学校,141200,,东湖路115号武汉大学医学部内,114.355377,30.55321,,湖北省,武汉市,武昌区
B0FFG56PJC,武汉大学医学部营养部,科教文化服务;学校;高等院校,141201,,东湖路115号武汉大学医学部,114.352127,30.554114,,湖北省,武汉市,武昌区
B0FFG56PIX,武汉大学医学部医学院,科教文化服务;学校;高等院校,141201,,东湖路115号武汉大学医学部,114.35684,30.553937,,湖北省,武汉市,武昌区
B0FFG56PIW,武汉大学医学部行政楼,科教文化服务;学校;学校,141200,,东湖路115号武汉大学医学部,114.356972,30.553943,,湖北省,武汉市,武昌区
B0FFG56PIV,武汉大学医学部仓库,科教文化服务;学校;高等院校,141201,,东湖路115号武汉大学医学部,114.354587,30.554751,,湖北省,武汉市,武昌区
B0FFG56PIT,武汉大学医学部教学楼,科教文化服务;学校;学校,141200,,东湖路115号武汉大学医学部,114.356607,30.555497,,湖北省,武汉市,武昌区
B0FFG56PIR,武汉大学医学部直线加速器治疗楼,科教文化服务;学校;学校,141200,,东湖路115号武汉大学医学部,114.355322,30.555318,,湖北省,武汉市,武昌区
B0FFG56PIQ,武汉大学医学部钴60治疗楼,科教文化服务;学校;学校,141200,,东湖路115号武汉大学医学部,114.354929,30.555228,,湖北省,武汉市,武昌区
B0FFG56PIG,武汉大学医学部(杏林门),科教文化服务;学校;高等院校,141201,,东湖路115号武汉大学医学部,114.356019,30.551779,,湖北省,武汉市,武昌区
B0FFG4HMOC,湖北大学新闻传播学院,科教文化服务;学校;高等院校,141201,,徐家棚街办事处友谊大道368号,114.330938,30.575456,,湖北省,武汉市,武昌区
B0FFFOGM02,中南财经政法大学首义校区文瀚楼,科教文化服务;学校;学校,141200,,中南财经政法大学首义校区内,114.31462,30.538248,,湖北省,武汉市,武昌区
B0FFFGUTPQ,武汉音乐学院关心下一代工作委员会,科教文化服务;学校;高等院校,141201,,解放路255武汉音乐学院解放路校区,114.296373,30.536849,,湖北省,武汉市,武昌区
B0FFFGUSB4,武汉音乐学院附属中等音乐学校,科教文化服务;学校;高等院校,141201,,解放路255武汉音乐学院解放路校区,114.295784,30.53766,,湖北省,武汉市,武昌区
B0FFFGN0ZG,中南财经政法大学首义校区文润楼,科教文化服务;学校;学校,141200,,武珞路114号中南财经政法大学首义校区,114.312568,30.539448,,湖北省,武汉市,武昌区
B0FFFGLT8X,湖北大学数学与统计学学院,科教文化服务;学校;高等院校,141201,,友谊大道368号,114.330563,30.577926,,湖北省,武汉市,武昌区
B0FFFDBXI9,湖北大学C栋管理室,科教文化服务;学校;高等院校,141201,,宏祥路西150米,114.338124,30.579767,,湖北省,武汉市,武昌区
B0FFFDBFA1,中南财经政法大学首义校区学工部首义学生工作办公室,科教文化服务;学校;高等院校,141201,,张之洞路,114.313158,30.535586,,湖北省,武汉市,武昌区
B0FFFDBEW8,中南财经政法大学首义校区信息管理部,科教文化服务;学校;高等院校,141201,,首义路街办事处首义路街道武珞路114号,114.312493,30.5359,,湖北省,武汉市,武昌区
B0FFFDBEW0,中南财经政法大学首义校区现代教育技术中心,科教文化服务;学校;高等院校,141201,,武珞路114号,114.312493,30.5359,,湖北省,武汉市,武昌区
B0FFFDBEUU,中南财经政法大学首义校区电教楼,科教文化服务;学校;学校,141200,,武珞路114号中南财经政法大学首义校区,114.312561,30.535902,,湖北省,武汉市,武昌区
B0FFFDBB0I,中南财经政法大学首义校区体育部办公室,科教文化服务;学校;学校,141200,,武珞路114号中南财经政法大学首义校区,114.312243,30.538312,,湖北省,武汉市,武昌区
B0FFFDB88H,湖北大学毕业生就业指导服务中心,科教文化服务;学校;高等院校,141201,,友谊大道368号,114.335895,30.578932,,湖北省,武汉市,武昌区
B0FFFCRB2Y,湖北大学高等人文研究院,科教文化服务;学校;高等院校,141201,,友谊大道368号,114.330652,30.575725,,湖北省,武汉市,武昌区
B0FFFCRAPI,湖北大学教师教育课部,科教文化服务;学校;高等院校,141201,,友谊大道368号,114.331617,30.57657,,湖北省,武汉市,武昌区
B0FFFCQNJ4,湖北大学MPA教育中心,科教文化服务;学校;高等院校,141201,,友谊大道368号,114.331658,30.578546,,湖北省,武汉市,武昌区
B0FFFCQNJ1,湖北大学综合楼,科教文化服务;学校;学校,141200,,徐家棚街办事处友谊大道368号,114.33231,30.578646,,湖北省,武汉市,武昌区
B0FFFCQNIY,湖北大学行政楼,科教文化服务;学校;高等院校,141201,,徐家棚街办事处友谊大道368号,114.33231,30.578646,,湖北省,武汉市,武昌区
B0FFFCOLXG,湖北大学英语语言学习中心,科教文化服务;学校;高等院校,141201,,教院路与雁桥路交叉口东北100米,114.332236,30.577893,,湖北省,武汉市,武昌区
B0FFF54FYB,武昌实验中学国际部国班招生办公室,科教文化服务;学校;中学,141202,,火炬路48号,114.3021,30.551682,,湖北省,武汉市,武昌区
B0FFF35L8S,武汉大学医学部杏林教学5楼,科教文化服务;学校;学校,141200,,杏林路与求索东路交叉口西北50米,114.356379,30.554941,,湖北省,武汉市,武昌区
B0FFF35L6M,武汉大学医学部4号教学楼,科教文化服务;学校;学校,141200,,东湖路115号武汉大学医学部,114.354557,30.553254,,湖北省,武汉市,武昌区
B0FFF35L6L,武汉大学医学部校医四教学3楼,科教文化服务;学校;学校,141200,,东湖路115号武汉大学医学部,114.355403,30.553217,,湖北省,武汉市,武昌区
B0FFF35L6K,武汉大学医学部校医四教学1楼,科教文化服务;学校;学校,141200,,东湖路115号武汉大学医学部,114.355805,30.554166,,湖北省,武汉市,武昌区
B0FFF35L5U,武汉大学医学部科技楼,科教文化服务;学校;学校,141200,,东湖路115号武汉大学医学部,114.354496,30.554364,027-68759376,湖北省,武汉市,武昌区
B0FFF35KUQ,武汉大学医学部杏林教学2楼,科教文化服务;学校;学校,141200,,东湖路115号武汉大学医学部,114.356255,30.553221,,湖北省,武汉市,武昌区
B0FFF0FMAK,湖北大学-计算中心,科教文化服务;学校;高等院校,141201,,湖北大学,114.332232,30.577865,,湖北省,武汉市,武昌区
B0FFF0FEWX,湖北大学资源与环境学院,科教文化服务;学校;高等院校,141201,,湖北大学,114.334148,30.576856,,湖北省,武汉市,武昌区
B001B1IGJV,湖北大学生命科学学院,科教文化服务;学校;高等院校,141201,,学院路11号,114.333551,30.580524,,湖北省,武汉市,武昌区
B001B1IGFT,湖北大学-教2,科教文化服务;学校;学校,141200,,友谊大道11附近,114.331658,30.578546,,湖北省,武汉市,武昌区
B001B1HC6R,湖北大学-教1,科教文化服务;学校;高等院校,141201,,友谊大道368号,114.33249,30.579311,,湖北省,武汉市,武昌区
B001B1HC04,湖北大学历史文化学院,科教文化服务;学校;高等院校,141201,,友谊大道368号,114.330639,30.575711,,湖北省,武汉市,武昌区
B001B1H4D4,湖北大学-教4,科教文化服务;学校;高等院校,141201,,友谊大道368湖北大学,114.330221,30.57724,,湖北省,武汉市,武昌区
B001B1H39P,武汉大学医学部教材中心医学部教材供应点,科教文化服务;学校;高等院校,141201,,东湖路115号武汉大学医学部,114.357617,30.553763,,湖北省,武汉市,武昌区
B001B1GIL6,武汉音乐学院附属音乐小学,科教文化服务;学校;小学,141203,,解放路255号武汉音乐学院解放路校区,114.296934,30.537916,027-88079090,湖北省,武汉市,武昌区
B001B1E4YE,湖北大学武昌校区马克思主义学院,科教文化服务;学校;高等院校,141201,,湖北大学内,114.331641,30.578572,,湖北省,武汉市,武昌区
B001B1DI67,武汉大学医学部HOPE护理学院,科教文化服务;学校;高等院校,141201,,东湖路115号武汉大学医学部,114.356221,30.553221,,湖北省,武汉市,武昌区
B001B1CXU2,武汉大学医学院基础医学院人体解剖学与组织胚胎学系,科教文化服务;学校;高等院校,141201,,东湖路115号武汉大学医学部内,114.356616,30.555526,,湖北省,武汉市,武昌区
B001B1CXQZ,湖北大学材料科学与工程学院,科教文化服务;学校;高等院校,141201,,湖北大学内,114.334014,30.580893,,湖北省,武汉市,武昌区
B001B1CXPW,湖北大学文学院,科教文化服务;学校;高等院校,141201,,学院路11号,114.331505,30.575276,,湖北省,武汉市,武昌区
B001B1CXHF,武汉大学医学部公共卫生学院,科教文化服务;学校;高等院校,141201,,东湖路115号武汉大学医学部,114.356418,30.554987,027-68758648;027-68759399,湖北省,武汉市,武昌区
B001B1CXH5,湖北大学化学化工学院,科教文化服务;学校;高等院校,141201,,湖北大学内,114.333605,30.57985,027-88662747,湖北省,武汉市,武昌区
B001B1CXGW,湖北大学体育学院,科教文化服务;学校;高等院校,141201,,友谊大道368号,114.332461,30.579263,,湖北省,武汉市,武昌区
B001B1CXGV,湖北大学资源环境学院,科教文化服务;学校;高等院校,141201,,友谊大道368号,114.333439,30.577412,,湖北省,武汉市,武昌区
B001B1CXFR,湖北大学国际教育学院,科教文化服务;学校;高等院校,141201,,友谊大道368号,114.33259,30.577998,,湖北省,武汉市,武昌区
B001B1CXFH,湖北大学武昌校区逸夫人文楼,科教文化服务;学校;学校,141200,,友谊大道368号,114.331079,30.576037,027-88661111,湖北省,武汉市,武昌区
B001B1CX8J,湖北大学-教6,科教文化服务;学校;高等院校,141201,,教院路与雁桥路交叉口东北100米,114.332236,30.577893,,湖北省,武汉市,武昌区
B001B1CX4Y,武汉大学第二临床学院,科教文化服务;学校;高等院校,141201,,东湖路169号,114.3547,30.55332,027-67812888;027-67812999;4001000920,湖北省,武汉市,武昌区
B001B1CX42,武汉音乐学院解放路校区3号楼,科教文化服务;学校;学校,141200,,解放路255武汉音乐学院解放路校区,114.296053,30.537789,,湖北省,武汉市,武昌区
B001B1CWYU,中南财经政法大学首义校区MBA学院,科教文化服务;学校;高等院校,141201,,武珞路114号中南财经政法大学首义校区,114.313777,30.538763,,湖北省,武汉市,武昌区
B001B1CWXV,湖北大学政法与公共管理学院,科教文化服务;学校;高等院校,141201,,徐家棚街办事处学院路11号,114.331658,30.578546,,湖北省,武汉市,武昌区
B001B1CWVI,武汉大学医学部东实验楼,科教文化服务;学校;学校,141200,,东湖路115号武汉大学医学部,114.356031,30.553173,,湖北省,武汉市,武昌区
B001B1CWTR,湖北大学武昌校区外国语学院,科教文化服务;学校;高等院校,141201,,学院路11号,114.331443,30.575287,,湖北省,武汉市,武昌区
B001B1CWQE,湖北大学-教3,科教文化服务;学校;高等院校,141201,,徐家棚办事处友谊大道368号,114.331183,30.576679,,湖北省,武汉市,武昌区
B001B1CWNB,武汉音乐学院解放路校区1号楼,科教文化服务;学校;学校,141200,,解放路255武汉音乐学院解放路校区,114.296543,30.537694,,湖北省,武汉市,武昌区
B001B1CWIE,武汉音乐学院4号楼,科教文化服务;学校;学校,141200,,解放路255号武汉音乐学院,114.296112,30.537639,,湖北省,武汉市,武昌区
B001B1CWGZ,湖北大学武昌校区教5,科教文化服务;学校;学校,141200,,友谊大道368号湖北大学内,114.330995,30.577976,,湖北省,武汉市,武昌区
B001B1C97K,湖北大学-田家炳教育学院,科教文化服务;学校;高等院校,141201,,友谊大道368号,114.331629,30.576438,,湖北省,武汉市,武昌区
